zone_id,display_name,state,rtmc,timezone,road,direction,location_description,lane_type,organization,detector_type,latitude,longitude,bearing,default_speed,interval,length,FID,ROADWAY,COLOR_CODE,DISTRICT,COUNTYDOT,COUNTY,MNG_DIST,BEGIN_POST,END_POST,Shape_Leng,Shape__Len
"3816",417003-5NBTT-link1,FTE,,America/New_York,SR-417,North,417-003_5-NB-TT,Unknown,FDOT,AVI,28.341833,-81.516875,,"65","60",2.4,,,,,,,,2.000000000000000,4.000000000000000,,
"4039",417003-0NB-LNK,FTE,,America/New_York,SR-417,North,417-002_9-NB-VDS,Unknown,FDOT,Radar,28.335649,-81.520487,,"65","60",,,,,,,,,2.000000000000000,4.000000000000000,,
"5651",417-002-6NB-LNK,FTE,,America/New_York,SR-417,North,417-002_6-NB-VDS,Unknown,FDOT,Radar,28.332286,-81.523216,,"65","60",,,,,,,,,2.000000000000000,4.000000000000000,,
"14436",417-002-9NB-LNK,FTE,,America/New_York,SR-417,North,417-002_9-NB-VDS,Unknown,FDOT,Radar,28.335649,-81.520487,,"65","60",,,,,,,,,2.000000000000000,4.000000000000000,,
"14501",417-002-9NB-LNK,FTE,,America/New_York,SR-417,North,417-002_9-NB-VDS,Unknown,FDOT,Radar,28.335649,-81.520487,,"65","60",,,,,,,,,2.000000000000000,4.000000000000000,,
"4040",417003-0SB-LNK,FTE,,America/New_York,SR-417,South,417-002_9-NB-VDS,Unknown,FDOT,Radar,28.335649,-81.520487,,"65","60",,,,,,,,,2.000000000000000,4.000000000000000,,
"5652",417-002-6SB-LNK,FTE,,America/New_York,SR-417,South,417-002_6-NB-VDS,Unknown,FDOT,Radar,28.332286,-81.523216,,"65","60",,,,,,,,,2.000000000000000,4.000000000000000,,
"14427",417-002-9SB-LNK,FTE,,America/New_York,SR-417,South,417-002_9-NB-VDS,Unknown,FDOT,Radar,28.335649,-81.520487,,"65","60",,,,,,,,,2.000000000000000,4.000000000000000,,
"14500",417-002-9SB-LNK,FTE,,America/New_York,SR-417,South,417-002_9-NB-VDS,Unknown,FDOT,Radar,28.335649,-81.520487,,"65","60",,,,,,,,,2.000000000000000,4.000000000000000,,
"3816",417003-5NBTT-link1,FTE,,America/New_York,SR-417,North,417-003_5-NB-TT,Unknown,FDOT,AVI,28.341833,-81.516875,,"65","60",2.4,,,,,,,,4.000000000000000,3.000000000000000,,
"4038",417003-5NB-LNK,FTE,,America/New_York,SR-417,North,417-003_5-SB-VDS,Unknown,FDOT,Radar,28.342099,-81.51724,,"65","60",,,,,,,,,4.000000000000000,3.000000000000000,,
"14435",417-003-4NB-LNK,FTE,,America/New_York,SR-417,North,417-003_4-SB-VDS,Unknown,FDOT,Radar,28.342099,-81.51724,,"65","60",,,,,,,,,4.000000000000000,3.000000000000000,,
"3516",417003-5SBTT-link1,FTE,,America/New_York,SR-417,South,417-003_5-SB-TT,Unknown,FDOT,AVI,28.342099,-81.51724,,"65","60",1.4,,,,,,,,4.000000000000000,3.000000000000000,,
"4037",417003-5SB-LNK,FTE,,America/New_York,SR-417,South,417-003_5-SB-VDS,Unknown,FDOT,Radar,28.342099,-81.51724,,"65","60",,,,,,,,,4.000000000000000,3.000000000000000,,
"14426",417-003-4SB-LNK,FTE,,America/New_York,SR-417,South,417-003_4-SB-VDS,Unknown,FDOT,Radar,28.342099,-81.51724,,"65","60",,,,,,,,,4.000000000000000,3.000000000000000,,
"6137",I-4 EB @ MM 064.1-EB,District 5,Orlando,America/New_York,I-4,East,MVDS: I-4 at OSC MM064.1 ES,Unknown,FDOT,Radar,28.3324,-81.5454,,"65","30",0.5,,,,,,,,1.000000000000000,2.000000000000000,,
"6138",I-4 EB @ MM 064.1-WB,District 5,Orlando,America/New_York,I-4,West,MVDS: I-4 at OSC MM064.1 ES,Unknown,FDOT,Radar,28.3324,-81.5454,,"65","30",0.6,,,,,,,,1.000000000000000,2.000000000000000,,
"11746",Bronson EB-CelbrtnPl-CelbrtnAv,District 5,,America/New_York,US-192 / Vine St / Bronson Hwy,East,BM: US-192 at OSC CelbrtnPl WS,Unknown,FDOT,AVI,28.33254,-81.5372,,"45","300",0.41,,,,,,,,1.000000000000000,2.000000000000000,,
"11764",Bronson EB-CelbrtnAv-Seralago,District 5,,America/New_York,US-192 / Vine St / Bronson Hwy,East,BM: US-192 at OSC CelbrtnAve ES,Unknown,FDOT,AVI,28.33299,-81.52595,,"45","300",0.98,,,,,,,,1.000000000000000,2.000000000000000,,
"11713",Bronson WB-CelbrtnAv-CelbrtnPl,District 5,,America/New_York,US-192 / Vine St / Bronson Hwy,West,BM: US-192 at OSC CelbrtnAve ES,Unknown,FDOT,AVI,28.33299,-81.52595,,"45","300",0.41,,,,,,,,1.000000000000000,2.000000000000000,,
"11714",Bronson EB-CelbrtnAv-KissVnlnd,District 5,,America/New_York,US-192 / Vine St / Bronson Hwy,West,BM: Bronson MemHwy at OSC CelbrtnAve ES,Unknown,FDOT,AVI,28.33299,-81.52595,,"45","300",2.94,,,,,,,,1.000000000000000,2.000000000000000,,
"11745",Bronson WB-CelbrtnPl-WorldDr,District 5,,America/New_York,US-192 / Vine St / Bronson Hwy,West,BM: US-192 at OSC CelbrtnPl WS,Unknown,FDOT,AVI,28.33254,-81.5372,,"45","300",2.03,,,,,,,,1.000000000000000,2.000000000000000,,
"5651",417-002-6NB-LNK,FTE,,America/New_York,SR-417,North,417-002_6-NB-VDS,Unknown,FDOT,Radar,28.332286,-81.523216,,"65","60",,,,,,,,,1.000000000000000,2.000000000000000,,
"5652",417-002-6SB-LNK,FTE,,America/New_York,SR-417,South,417-002_6-NB-VDS,Unknown,FDOT,Radar,28.332286,-81.523216,,"65","60",,,,,,,,,1.000000000000000,2.000000000000000,,
"6137",I-4 EB @ MM 064.1-EB,District 5,Orlando,America/New_York,I-4,East,MVDS: I-4 at OSC MM064.1 ES,Unknown,FDOT,Radar,28.3324,-81.5454,,"65","30",0.5,,,,,,,,1.000000000000000,3.000000000000000,,
"7041",I-4 WB @ MM 064.7-EB,District 5,Orlando,America/New_York,I-4,East,MVDS: I-4 at OSC MM064.7 WS,Unknown,FDOT,Radar,28.34,-81.53886,,"65","30",0.6,,,,,,,,1.000000000000000,3.000000000000000,,
"6138",I-4 EB @ MM 064.1-WB,District 5,Orlando,America/New_York,I-4,West,MVDS: I-4 at OSC MM064.1 ES,Unknown,FDOT,Radar,28.3324,-81.5454,,"65","30",0.6,,,,,,,,1.000000000000000,3.000000000000000,,
"6575",I-4 WB @ MM 064.7-WB,District 5,Orlando,America/New_York,I-4,West,MVDS: I-4 at OSC MM064.7 WS,Unknown,FDOT,Radar,28.34,-81.53886,,"65","30",0.5,,,,,,,,1.000000000000000,3.000000000000000,,
"6110",I-4 @ C Fl Parkway-link1,District 5,Orlando,America/New_York,I-4,East,I-4 @ C Fl Parkway,Unknown,FDOT,Single Loop,28.4095,-81.4759,,"70","30",,,,,,,,,3.000000000000000,5.000000000000000,,
"6564",I-4 East of SR 535-link1,District 5,Orlando,America/New_York,I-4,East,MVDS: I-4 at ORA MM069.0 ES,Unknown,FDOT,Single Loop,28.3877,-81.4959,,"60","30",,,,,,,,,3.000000000000000,5.000000000000000,,
"6587",I-4 Ramp SR 535-EB,District 5,Orlando,America/New_York,I-4,East,MVDS: I-4 at ORA MM068.6 WS,Unknown,FDOT,Single Loop,28.3823,-81.5007,,"60","30",,,,,,,,,3.000000000000000,5.000000000000000,,
"6834",I-4 EB @ MM 069.7-EB,District 5,Orlando,America/New_York,I-4,East,MVDS: I-4 at ORA MM069.7 ES,Unknown,FDOT,Radar,28.3965,-81.4873,,"65","30",0.7,,,,,,,,3.000000000000000,5.000000000000000,,
"7042",I-4 W of C FL Pkwy-EB,District 5,Orlando,America/New_York,I-4,East,MVDS: I-4 at ORA MM070.3 ES,Unknown,FDOT,Single Loop,28.4032,-81.4817,,"60","30",,,,,,,,,3.000000000000000,5.000000000000000,,
"7045",I-4 WB @ MM 066.5-EB,District 5,Orlando,America/New_York,I-4,East,MVDS: I-4 at ORA MM066.5 WS,Unknown,FDOT,Radar,28.35975,-81.52096,,"65","30",0.7,,,,,,,,3.000000000000000,5.000000000000000,,
"7738",I-4 WB @ MM 065.2-EB,District 5,,America/New_York,I-4,East,MVDS: I-4 at OSC MM065.2 WS,Unknown,FDOT,Radar,28.34608,-81.53316,,"65","30",0.5,,,,,,,,3.000000000000000,5.000000000000000,,
"9681",I-4 EB @ MM 067.2-EB,District 5,,America/New_York,I-4,East,MVDS: I-4 at ORA MM067.2 ES,Unknown,FDOT,Radar,28.37083,-81.51028,,"45","30",0.7,,,,,,,,3.000000000000000,5.000000000000000,,
"9698",I-4 WB @ MM 065.8-EB,District 5,,America/New_York,I-4,East,MVDS: I-4 at OSC MM065.8 WS,Unknown,FDOT,Radar,28.35266,-81.5273,,"60","30",0.6,,,,,,,,3.000000000000000,5.000000000000000,,
"9744",I-4 EB @ MM 067.9-EB,District 5,,America/New_York,I-4,East,MVDS: I-4 at ORA MM067.9 ES,Unknown,FDOT,Radar,28.376656,-81.505186,,"60","30",0.7,,,,,,,,3.000000000000000,5.000000000000000,,
"9746",I-4 EB @ MM 068.6-EB,District 5,,America/New_York,I-4,East,MVDS: I-4 at ORA MM068.6 ES,Unknown,FDOT,Radar,28.3823,-81.5001,,"60","30",0.7,,,,,,,,3.000000000000000,5.000000000000000,,
"9749",I-4 EB @ MM 070.9-EB,District 5,,America/New_York,I-4,East,MVDS: I-4 at ORA MM070.9 ES,Unknown,FDOT,Radar,28.410162,-81.475231,,"60","30",0.6,,,,,,,,3.000000000000000,5.000000000000000,,
"9750",I-4 EB @ MM 070.3-EB,District 5,,America/New_York,I-4,East,MVDS: I-4 at ORA MM070.3 ES,Unknown,FDOT,Radar,28.4032,-81.4813,,"60","30",0.6,,,,,,,,3.000000000000000,5.000000000000000,,
"9752",I-4 EB @ MM 069.0-EB,District 5,,America/New_York,I-4,East,MVDS: I-4 at ORA MM069.0 ES,Unknown,FDOT,Radar,28.3877,-81.4952,,"60","30",0.4,,,,,,,,3.000000000000000,5.000000000000000,,
"6147",I-4 WB @ MM 066.5-WB,District 5,Orlando,America/New_York,I-4,West,MVDS: I-4 at ORA MM066.5 WS,Unknown,FDOT,Radar,28.35975,-81.52096,,"65","30",0.7,,,,,,,,3.000000000000000,5.000000000000000,,
"6552",I-4 EB @ MM 069.7-WB,District 5,Orlando,America/New_York,I-4,West,MVDS: I-4 at ORA MM069.7 ES,Unknown,FDOT,Radar,28.3965,-81.4873,,"65","30",0.6,,,,,,,,3.000000000000000,5.000000000000000,,
"6568",I-4 East of SR 535-link2,District 5,Orlando,America/New_York,I-4,West,MVDS: I-4 at ORA MM069.0 ES,Unknown,FDOT,Single Loop,28.3877,-81.4959,,"60","30",,,,,,,,,3.000000000000000,5.000000000000000,,
"6588",I-4 Ramp SR 535-WB,District 5,Orlando,America/New_York,I-4,West,MVDS: I-4 at ORA MM068.6 WS,Unknown,FDOT,Single Loop,28.3823,-81.5007,,"60","30",,,,,,,,,3.000000000000000,5.000000000000000,,
"7043",I-4 W of C FL Pkwy-WB,District 5,Orlando,America/New_York,I-4,West,MVDS: I-4 at ORA MM070.3 ES,Unknown,FDOT,Single Loop,28.4032,-81.4817,,"60","30",,,,,,,,,3.000000000000000,5.000000000000000,,
"7080",I-4 @ C Fl Parkway-link2,District 5,Orlando,America/New_York,I-4,West,I-4 @ C Fl Parkway,Unknown,FDOT,Single Loop,28.4095,-81.4759,,"70","30",,,,,,,,,3.000000000000000,5.000000000000000,,
"7739",I-4 WB @ MM 065.2-WB,District 5,,America/New_York,I-4,West,MVDS: I-4 at OSC MM065.2 WS,Unknown,FDOT,Radar,28.34608,-81.53316,,"65","30",0.6,,,,,,,,3.000000000000000,5.000000000000000,,
"9682",I-4 EB @ MM 067.2-WB,District 5,,America/New_York,I-4,West,MVDS: I-4 at ORA MM067.2 ES,Unknown,FDOT,Radar,28.37083,-81.51028,,"45","30",0.7,,,,,,,,3.000000000000000,5.000000000000000,,
"9697",I-4 EB @ MM 067.2-WB-Rmp,District 5,,America/New_York,I-4,West,MVDS: I-4 at ORA MM067.2 ES,Unknown,FDOT,Radar,28.37083,-81.51028,,"45","30",0.7,,,,,,,,3.000000000000000,5.000000000000000,,
"9699",I-4 WB @ MM 065.8-WB,District 5,,America/New_York,I-4,West,MVDS: I-4 at OSC MM065.8 WS,Unknown,FDOT,Radar,28.35266,-81.5273,,"60","30",0.5,,,,,,,,3.000000000000000,5.000000000000000,,
"9745",I-4 EB @ MM 067.9-WB,District 5,,America/New_York,I-4,West,MVDS: I-4 at ORA MM067.9 ES,Unknown,FDOT,Radar,28.376656,-81.505186,,"60","30",0.7,,,,,,,,3.000000000000000,5.000000000000000,,
"9747",I-4 EB @ MM 068.6-WB,District 5,,America/New_York,I-4,West,MVDS: I-4 at ORA MM068.6 ES,Unknown,FDOT,Radar,28.3823,-81.5001,,"60","30",0.4,,,,,,,,3.000000000000000,5.000000000000000,,
"9748",I-4 WB @ MM 070.9-WB,District 5,,America/New_York,I-4,West,MVDS: I-4 at ORA MM070.9 WS,Unknown,FDOT,Radar,28.409973,-81.475991,,"60","30",1,,,,,,,,3.000000000000000,5.000000000000000,,
"9751",I-4 EB @ MM 070.3-WB,District 5,,America/New_York,I-4,West,MVDS: I-4 at ORA MM070.3 ES,Unknown,FDOT,Radar,28.4032,-81.4813,,"60","30",0.6,,,,,,,,3.000000000000000,5.000000000000000,,
"9753",I-4 EB @ MM 069.0-WB,District 5,,America/New_York,I-4,West,MVDS: I-4 at ORA MM069.0 ES,Unknown,FDOT,Radar,28.3877,-81.4952,,"60","30",0.7,,,,,,,,3.000000000000000,5.000000000000000,,
"13520",SR-535 NB-I4-EExt68-I4-WExt68,District 5,,America/New_York,SR-535 / Winter Garden Vineland Rd,North,BM: I-4 at ORA Exit 68 ES,Unknown,FDOT,AVI,28.372484,-81.50819,,"65","300",1,,,,,,,,3.000000000000000,5.000000000000000,,
"13521",SR-535 SB-I4-WExt68-I4-EExt68,District 5,,America/New_York,SR-535 / Winter Garden Vineland Rd,South,BM: I-4 at ORA Exit 68 WS,Unknown,FDOT,AVI,28.380791,-81.502075,,"65","300",1,,,,,,,,3.000000000000000,5.000000000000000,,
"6103",I-4 @ 435-link1,District 5,Orlando,America/New_York,I-4,East,I-4 @ 435,Unknown,FDOT,Single Loop,28.4673,-81.4607,,"70","30",1,,,,,,,,5.000000000000000,11.000000000000000,,
"6124",I-4 WB @ MM 072.1-EB,District 5,Orlando,America/New_York,I-4,East,MVDS: I-4 at ORA MM072.1 WS,Unknown,FDOT,Radar,28.4262,-81.4745,,"45","30",0.2,,,,,,,,5.000000000000000,11.000000000000000,,
"6334",RSE-09_I-4_Sandlake-EB,District 5,Orlando,America/New_York,I-4,East,RSE-09_I-4_Sandlake,Unknown,FDOT,OBE,28.449149,-81.474054,,,"20",1,,,,,,,,5.000000000000000,11.000000000000000,,
"6336",RSE-08_I-4_E_of_Sandlake-EB,District 5,Orlando,America/New_York,I-4,East,RSE-08_I-4_E_of_Sandlake,Unknown,FDOT,OBE,28.457391,-81.473786,,,"20",1,,,,,,,,5.000000000000000,11.000000000000000,,
"6338",RSE-11_I-4_SR-528_WB_Ramp-EB,District 5,Orlando,America/New_York,I-4,East,RSE-11_I-4_SR-528_WB_Ramp,Unknown,FDOT,OBE,28.422089,-81.473999,,,"20",1,,,,,,,,5.000000000000000,11.000000000000000,,
"6347",RSE-07_I-4_W_of_Universal-EB,District 5,Orlando,America/New_York,I-4,East,RSE-07_I-4_W_of_Universal,Unknown,FDOT,OBE,28.462386,-81.469039,,,"20",1,,,,,,,,5.000000000000000,11.000000000000000,,
"6351",RSE-10_I-4_E_of_SR-528-EB,District 5,Orlando,America/New_York,I-4,East,RSE-10_I-4_E_of_SR-528,Unknown,FDOT,OBE,28.434072,-81.473874,,,"20",1,,,,,,,,5.000000000000000,11.000000000000000,,
"6462",I-4 528 E/B Ramp-link1,District 5,Orlando,America/New_York,I-4,East,MVDS: I-4 at ORA MM071.9 ES,Unknown,FDOT,Single Loop,28.42258,-81.474,,"65","30",,,,,,,,,5.000000000000000,11.000000000000000,,
"6570",I-4 East of Sand Lake-EB,District 5,Orlando,America/New_York,I-4,East,I-4 East of Sand Lake(SR 482),Unknown,FDOT,Single Loop,28.4579,-81.4731,,"65","30",,,,,,,,,5.000000000000000,11.000000000000000,,
"6576",I-4 W of Sand Lake-EB,District 5,Orlando,America/New_York,I-4,East,MVDS: I-4 at ORA MM073.2 WS,Unknown,FDOT,Single Loop,28.442,-81.4746,,"70","30",,,,,,,,,5.000000000000000,11.000000000000000,,
"6578",I-4 W of Universal-link1,District 5,Orlando,America/New_York,I-4,East,I-4 W of Universal,Unknown,FDOT,Single Loop,28.4633,-81.4683,,"70","30",,,,,,,,,5.000000000000000,11.000000000000000,,
"6860",RSE-06_I-4_SR-435-EB,District 5,Orlando,America/New_York,I-4,East,RSE-06_I-4_SR-435,Unknown,FDOT,OBE,28.468361,-81.458643,,,"20",1,,,,,,,,5.000000000000000,11.000000000000000,,
"7037",I-4 @ Sand Lake-EB,District 5,Orlando,America/New_York,I-4,East,I-4 @ Sand Lake (SR 482),Unknown,FDOT,Single Loop,28.4496,-81.4744,,"65","30",,,,,,,,,5.000000000000000,11.000000000000000,,
"7073",I-4 EB @ MM 072.6-EB,District 5,Orlando,America/New_York,I-4,East,MVDS: I-4 at ORA MM072.6 ES,Unknown,FDOT,Radar,28.43242,-81.47403,,"70","30",0.5,,,,,,,,5.000000000000000,11.000000000000000,,
"8612",I-4 EB @ MM 074.2-EB,District 5,,America/New_York,I-4,East,MVDS: I-4 at ORA MM074.2 ES,Unknown,FDOT,Radar,28.457938,-81.473214,,"65","30",0.4,,,,,,,,5.000000000000000,11.000000000000000,,
"8613",I-4 EB @ MM 073.8-EB,District 5,,America/New_York,I-4,East,MVDS: I-4 at ORA MM073.8 ES,Unknown,FDOT,Radar,28.447977,-81.474308,,"65","30",0.6,,,,,,,,5.000000000000000,11.000000000000000,,
"9702",I-4 EB @ MM 071.9-EB,District 5,,America/New_York,I-4,East,MVDS: I-4 at ORA MM071.9 ES,Unknown,FDOT,Radar,28.42258,-81.474,,"65","30",1,,,,,,,,5.000000000000000,11.000000000000000,,
"9714",I-4 WB @ MM 072.1-EB-Rmp,District 5,,America/New_York,I-4,East,MVDS: I-4 at ORA MM072.1 WS,Unknown,FDOT,Radar,28.4262,-81.4745,,"45","30",0.2,,,,,,,,5.000000000000000,11.000000000000000,,
"9722",I-4 WB @ MM 073.2-EB,District 5,,America/New_York,I-4,East,MVDS: I-4 at ORA MM073.2 WS,Unknown,FDOT,Radar,28.440204,-81.474266,,"70","30",0.6,,,,,,,,5.000000000000000,11.000000000000000,,
"9733",I-4 EB @ MM 074.5-EB,District 5,,America/New_York,I-4,East,MVDS: I-4 at ORA MM074.5 ES,Unknown,FDOT,Radar,28.462711,-81.468172,,"60","30",0.3,,,,,,,,5.000000000000000,11.000000000000000,,
"9774",I-4 @ 435 EB,District 5,,America/New_York,I-4,East,MVDS: I-4 at ORA MM075.1 ES,Unknown,FDOT,Radar,28.4673,-81.4607,,"55","30",1,,,,,,,,5.000000000000000,11.000000000000000,,
"14083",I-4 EB @ MM 075.1-EB,District 5,,America/New_York,I-4,East,MVDS: I-4 at ORA MM075.1 ES,Unknown,FDOT,Radar,28.467934,-81.459559,,"60","30",0.6,,,,,,,,5.000000000000000,11.000000000000000,,
"14529",MVDS: I-4-EB 074.8,District 5,,America/New_York,I-4,East,MVDS: I-4 at ORA MM074.8 ES,Unknown,FDOT,Radar,28.457472,-81.473475,,"55","30",0.2,,,,,,,,5.000000000000000,11.000000000000000,,
"14718",MVDS: I-4-EB 075.3 OFF,District 5,,America/New_York,I-4,East,MVDS: I-4 at ORA MM075.3 ES,Unknown,FDOT,Radar,28.462678,-81.467975,,"55","30",0.2,,,,,,,,5.000000000000000,11.000000000000000,,
"14719",MVDS: I-4-EB 075.3,District 5,,America/New_York,I-4,East,MVDS: I-4 at ORA MM075.3 ES,Unknown,FDOT,Radar,28.462678,-81.467975,,"55","30",0.2,,,,,,,,5.000000000000000,11.000000000000000,,
"14720",MVDS: I-4-EB 075.6 OFF,District 5,,America/New_York,I-4,East,MVDS: I-4 at ORA MM075.6 ES,Unknown,FDOT,Radar,28.465964,-81.464097,,"55","30",0.2,,,,,,,,5.000000000000000,11.000000000000000,,
"14721",MVDS: I-4-EB 075.6,District 5,,America/New_York,I-4,East,MVDS: I-4 at ORA MM075.6 ES,Unknown,FDOT,Radar,28.465964,-81.464097,,"55","30",0.2,,,,,,,,5.000000000000000,11.000000000000000,,
"14728",MVDS: I-4-EB 075.7 EL,District 5,,America/New_York,I-4,East,MVDS: I-4 at ORA MM075.7 EX,Unknown,FDOT,Radar,28.466158,-81.464047,,"55","30",0.2,,,,,,,,5.000000000000000,11.000000000000000,,
"16922",I-4 EB @ MM 073.1-WB-East,District 5,,America/New_York,I-4,East,MVDS: I-4 at ORA MM073.1 ES,Unknown,FDOT,Radar,28.439827,-81.474308,,"60","30",0.1,,,,,,,,5.000000000000000,11.000000000000000,,
"6121",I-4 @ 435-link2,District 5,Orlando,America/New_York,I-4,West,I-4 @ 435,Unknown,FDOT,Single Loop,28.4673,-81.4607,,"70","30",1,,,,,,,,5.000000000000000,11.000000000000000,,
"6125",I-4 WB @ MM 072.1-WB,District 5,Orlando,America/New_York,I-4,West,MVDS: I-4 at ORA MM072.1 WS,Unknown,FDOT,Radar,28.4262,-81.4745,,"45","30",0.5,,,,,,,,5.000000000000000,11.000000000000000,,
"6335",RSE-09_I-4_Sandlake-WB,District 5,Orlando,America/New_York,I-4,West,RSE-09_I-4_Sandlake,Unknown,FDOT,OBE,28.449149,-81.474054,,,"20",1,,,,,,,,5.000000000000000,11.000000000000000,,
"6337",RSE-08_I-4_E_of_Sandlake-WB,District 5,Orlando,America/New_York,I-4,West,RSE-08_I-4_E_of_Sandlake,Unknown,FDOT,OBE,28.457391,-81.473786,,,"20",1,,,,,,,,5.000000000000000,11.000000000000000,,
"6339",RSE-11_I-4_SR-528_WB_Ramp-WB,District 5,Orlando,America/New_York,I-4,West,RSE-11_I-4_SR-528_WB_Ramp,Unknown,FDOT,OBE,28.422089,-81.473999,,,"20",1,,,,,,,,5.000000000000000,11.000000000000000,,
"6348",RSE-07_I-4_W_of_Universal-WB,District 5,Orlando,America/New_York,I-4,West,RSE-07_I-4_W_of_Universal,Unknown,FDOT,OBE,28.462386,-81.469039,,,"20",1,,,,,,,,5.000000000000000,11.000000000000000,,
"6352",RSE-10_I-4_E_of_SR-528-WB,District 5,Orlando,America/New_York,I-4,West,RSE-10_I-4_E_of_SR-528,Unknown,FDOT,OBE,28.434072,-81.473874,,,"20",1,,,,,,,,5.000000000000000,11.000000000000000,,
"6463",I-4 528 E/B Ramp-link2,District 5,Orlando,America/New_York,I-4,West,MVDS: I-4 at ORA MM071.9 ES,Unknown,FDOT,Single Loop,28.42258,-81.474,,"65","30",,,,,,,,,5.000000000000000,11.000000000000000,,
"6508",I-4 @ Sand Lake-WB,District 5,Orlando,America/New_York,I-4,West,I-4 @ Sand Lake (SR 482),Unknown,FDOT,Single Loop,28.4496,-81.4744,,"65","30",,,,,,,,,5.000000000000000,11.000000000000000,,
"6559",I-4 EB @ MM 072.6-WB,District 5,Orlando,America/New_York,I-4,West,MVDS: I-4 at ORA MM072.6 ES,Unknown,FDOT,Radar,28.43242,-81.47403,,"70","30",0.6,,,,,,,,5.000000000000000,11.000000000000000,,
"6571",I-4 East of Sand Lake-WB,District 5,Orlando,America/New_York,I-4,West,I-4 East of Sand Lake(SR 482),Unknown,FDOT,Single Loop,28.4579,-81.4731,,"65","30",,,,,,,,,5.000000000000000,11.000000000000000,,
"6577",I-4 W of Sand Lake-WB,District 5,Orlando,America/New_York,I-4,West,MVDS: I-4 at ORA MM073.2 WS,Unknown,FDOT,Single Loop,28.442,-81.4746,,"70","30",,,,,,,,,5.000000000000000,11.000000000000000,,
"6861",RSE-06_I-4_SR-435-WB,District 5,Orlando,America/New_York,I-4,West,RSE-06_I-4_SR-435,Unknown,FDOT,OBE,28.468361,-81.458643,,,"20",1,,,,,,,,5.000000000000000,11.000000000000000,,
"7081",I-4 W of Universal-link2,District 5,Orlando,America/New_York,I-4,West,I-4 W of Universal,Unknown,FDOT,Single Loop,28.4633,-81.4683,,"70","30",,,,,,,,,5.000000000000000,11.000000000000000,,
"8614",I-4 EB @ MM 073.8-WB,District 5,,America/New_York,I-4,West,MVDS: I-4 at ORA MM073.8 ES,Unknown,FDOT,Radar,28.447977,-81.474308,,"65","30",0.4,,,,,,,,5.000000000000000,11.000000000000000,,
"9703",I-4 EB @ MM 071.9-WB,District 5,,America/New_York,I-4,West,MVDS: I-4 at ORA MM071.9 ES,Unknown,FDOT,Radar,28.42258,-81.474,,"65","30",0.2,,,,,,,,5.000000000000000,11.000000000000000,,
"9715",I-4 WB @ MM 072.1-WB-Rmp,District 5,,America/New_York,I-4,West,MVDS: I-4 at ORA MM072.1 WS,Unknown,FDOT,Radar,28.4262,-81.4745,,"45","30",0.5,,,,,,,,5.000000000000000,11.000000000000000,,
"9723",I-4 WB @ MM 073.2-WB,District 5,,America/New_York,I-4,West,MVDS: I-4 at ORA MM073.2 WS,Unknown,FDOT,Radar,28.440204,-81.474266,,"70","30",0.6,,,,,,,,5.000000000000000,11.000000000000000,,
"14722",MVDS: I-4-WB 074.8 ON,District 5,,America/New_York,I-4,West,MVDS: I-4 at ORA MM074.8 WS,Unknown,FDOT,Radar,28.457561,-81.473992,,"55","30",0.2,,,,,,,,5.000000000000000,11.000000000000000,,
"14723",MVDS: I-4-WB 074.8,District 5,,America/New_York,I-4,West,MVDS: I-4 at ORA MM074.8 WS,Unknown,FDOT,Radar,28.457561,-81.473992,,"55","30",0.2,,,,,,,,5.000000000000000,11.000000000000000,,
"16921",I-4 EB @ MM 073.1-WB-West,District 5,,America/New_York,I-4,West,MVDS: I-4 at ORA MM073.1 ES,Unknown,FDOT,Radar,28.439827,-81.474308,,"60","30",0.1,,,,,,,,5.000000000000000,11.000000000000000,,
"6328",RSE-04_I-4_Turnpike-EB,District 5,Orlando,America/New_York,I-4,East,RSE-04_I-4_Turnpike,Unknown,FDOT,OBE,28.478745,-81.448873,,,"20",1,,,,,,,,12.000000000000000,13.000000000000000,,
"6329",RSE-04_I-4_Turnpike-WB,District 5,Orlando,America/New_York,I-4,West,RSE-04_I-4_Turnpike,Unknown,FDOT,OBE,28.478745,-81.448873,,,"20",1,,,,,,,,12.000000000000000,13.000000000000000,,
"5435",091259-8NB-LNK,FTE,,America/New_York,Bellevue Avenue,North,091-260_8-NSB-VDSx,Unknown,FDOT,Radar,28.475961,-81.447549,,"70","60",,,,,,,,,12.000000000000000,13.000000000000000,,
"5434",091259-8SB-LNK,FTE,,America/New_York,Bellevue Avenue,South,091-260_8-NSB-VDSx,Unknown,FDOT,Radar,28.475961,-81.447549,,"70","60",,,,,,,,,12.000000000000000,13.000000000000000,,
"3481",091-258-3NB-LNK,FTE,,America/New_York,Floridas Turnpike,North,091-258_3-SB-VDS,Unknown,FDOT,Radar,28.461519,-81.433125,,"70","60",,,,,,,,,12.000000000000000,13.000000000000000,,
"3483",091-258-7NB-LNK,FTE,,America/New_York,Floridas Turnpike,North,091-258_7-SB-VDS,Unknown,FDOT,Radar,28.46603,-81.438562,,"70","60",,,,,,,,,12.000000000000000,13.000000000000000,,
"3489",091-257-7NB-LNK,FTE,,America/New_York,Floridas Turnpike,North,091-257_7-NB-VDS,Unknown,FDOT,Radar,28.456064,-81.42608,,"70","60",,,,,,,,,12.000000000000000,13.000000000000000,,
"5437",091-259-2NB-LNK,FTE,,America/New_York,Floridas Turnpike,North,091-259_2-SB-VDS,Unknown,FDOT,Radar,28.471221,-81.444035,,"70","60",,,,,,,,,12.000000000000000,13.000000000000000,,
"14044",091-259-6NB-LNK,FTE,,America/New_York,Floridas Turnpike,North,091-259_6-SB-VDS,Unknown,FDOT,Radar,28.475896,-81.447615,,"70","70",,,,,,,,,12.000000000000000,13.000000000000000,,
"3482",091-258-7NSB-LNK,FTE,,America/New_York,Floridas Turnpike,South,091-258_7-SB-VDS,Unknown,FDOT,Radar,28.46603,-81.438562,,"70","60",,,,,,,,,12.000000000000000,13.000000000000000,,
"5436",091-259-2NSB-LNK,FTE,,America/New_York,Floridas Turnpike,South,091-259_2-SB-VDS,Unknown,FDOT,Radar,28.471221,-81.444035,,"70","60",,,,,,,,,12.000000000000000,13.000000000000000,,
"5439",091-258-3NSB-LNK,FTE,,America/New_York,Floridas Turnpike,South,091-258_3-SB-VDS,Unknown,FDOT,Radar,28.461519,-81.433125,,"70","60",,,,,,,,,12.000000000000000,13.000000000000000,,
"5856",091-257-7NSB-LNK,FTE,,America/New_York,Floridas Turnpike,South,091-257_7-NB-VDS,Unknown,FDOT,Radar,28.456064,-81.42608,,"70","60",,,,,,,,,12.000000000000000,13.000000000000000,,
"14043",091-259-6NSB-LNK,FTE,,America/New_York,Floridas Turnpike,South,091-259_6-SB-VDS,Unknown,FDOT,Radar,28.475896,-81.447615,,"70","70",,,,,,,,,12.000000000000000,13.000000000000000,,
"3486",091-257-3NB-LNK,FTE,,America/New_York,Floridas Turnpike,North,091-257_3-SB-VDS,Unknown,FDOT,Radar,28.451063,-81.422002,,"70","60",,,,,,,,,13.000000000000000,14.000000000000000,,
"3489",091-257-7NB-LNK,FTE,,America/New_York,Floridas Turnpike,North,091-257_7-NB-VDS,Unknown,FDOT,Radar,28.456064,-81.42608,,"70","60",,,,,,,,,13.000000000000000,14.000000000000000,,
"3805",091-256-4NB-LNK,FTE,,America/New_York,Floridas Turnpike,North,091-256_4-NB-VDS,Unknown,FDOT,Radar,28.441023,-81.414292,,"70","60",,,,,,,,,13.000000000000000,14.000000000000000,,
"5484",091-256-2NB-LNK,FTE,,America/New_York,Floridas Turnpike,North,091-256_2-SB-VDS,Unknown,FDOT,Radar,28.437597,-81.412765,,"70","60",,,,,,,,,13.000000000000000,14.000000000000000,,
"5526",091256.7NBTT-link1,FTE,,America/New_York,Floridas Turnpike,North,091-256_7-NB-TT,Unknown,FDOT,AVI,28.44613,-81.41785,,"70","60",29,,,,,,,,13.000000000000000,14.000000000000000,,
"5857",091-256-7NB-LNK,FTE,,America/New_York,Floridas Turnpike,North,091-256_7-NB-VDS,Unknown,FDOT,Radar,28.444604,-81.416578,,"70","60",,,,,,,,,13.000000000000000,14.000000000000000,,
"3485",091-257-3NSB-LNK,FTE,,America/New_York,Floridas Turnpike,South,091-257_3-SB-VDS,Unknown,FDOT,Radar,28.451063,-81.422002,,"70","60",,,,,,,,,13.000000000000000,14.000000000000000,,
"3806",091-256-4NSB-LNK,FTE,,America/New_York,Floridas Turnpike,South,091-256_4-NB-VDS,Unknown,FDOT,Radar,28.441023,-81.414292,,"70","60",,,,,,,,,13.000000000000000,14.000000000000000,,
"5440",091-256-7NSB-LNK,FTE,,America/New_York,Floridas Turnpike,South,091-256_7-NB-VDS,Unknown,FDOT,Radar,28.444604,-81.416578,,"70","60",,,,,,,,,13.000000000000000,14.000000000000000,,
"5483",091-256-2NSB-LNK,FTE,,America/New_York,Floridas Turnpike,South,091-256_2-SB-VDS,Unknown,FDOT,Radar,28.437597,-81.412765,,"70","60",,,,,,,,,13.000000000000000,14.000000000000000,,
"5529",091257.1SBTT-link1,FTE,,America/New_York,Floridas Turnpike,South,091-257_1-SB-TT,Unknown,FDOT,AVI,28.44784,-81.41959,,"70","60",1.9,,,,,,,,13.000000000000000,14.000000000000000,,
"5856",091-257-7NSB-LNK,FTE,,America/New_York,Floridas Turnpike,South,091-257_7-NB-VDS,Unknown,FDOT,Radar,28.456064,-81.42608,,"70","60",,,,,,,,,13.000000000000000,14.000000000000000,,
"5908",SR423 JYP @ SR528 - NB,District 5,Orlando,America/New_York,SR-423,North,SR423 JYP @ SR528 North,Unknown,FDOT,AVI,28.42217,-81.42208,,"45","30",6.13,,,,,,,,10.000000000000000,14.000000000000000,,
"3544",528-003_7-EB-LNK,FTE,,America/New_York,SR-528,East,528-003_6-EB-VDS,Unknown,FDOT,Radar,28.426995,-81.41726,,"55","60",,,,,,,,,10.000000000000000,14.000000000000000,,
"4927",528-004_3-WB-LNK,FTE,,America/New_York,SR-528,East,528-004_3-WB-VDS,Unknown,FDOT,Radar,28.433358,-81.409734,,"55","60",,,,,,,,,10.000000000000000,14.000000000000000,,
"5105",528-003_9-EB-LNK,FTE,,America/New_York,SR-528,East,528-003_8-EB-VDS,Unknown,FDOT,Radar,28.429466,-81.415018,,"55","60",,,,,,,,,10.000000000000000,14.000000000000000,,
"5536",528004-3EBTT-LNK,FTE,,America/New_York,SR-528,East,528-004_3-EB-TT,Unknown,FDOT,AVI,28.432823,-81.409432,,"55","60",3.9,,,,,,,,10.000000000000000,14.000000000000000,,
"16081",528-003_7EB-LNK,FTE,,America/New_York,SR-528,East,528-003_7-EB-VDS,Unknown,FDOT,Radar,28.427055,-81.417175,,"70","60",,,,,,,,,10.000000000000000,14.000000000000000,,
"16095",528-003_2-EB-LNK,FTE,,America/New_York,SR-528,East,528-003_2-WB-VDS,Unknown,FDOT,Radar,28.422406,-81.422311,,"70","60",,,,,,,,,10.000000000000000,14.000000000000000,,
"16105",528-004_3-EB-LNK,FTE,,America/New_York,SR-528,East,528-004_3-WB-VDS,Unknown,FDOT,Radar,28.432822,-81.409431,,"70","60",,,,,,,,,10.000000000000000,14.000000000000000,,
"16107",528-003_9-EB-LNK,FTE,,America/New_York,SR-528,East,528-003_9-WB-VDS,Unknown,FDOT,Radar,28.429466,-81.415018,,"70","60",,,,,,,,,10.000000000000000,14.000000000000000,,
"3545",528-003_7-WB-LNK,FTE,,America/New_York,SR-528,West,528-003_6-EB-VDS,Unknown,FDOT,Radar,28.426995,-81.41726,,"55","60",,,,,,,,,10.000000000000000,14.000000000000000,,
"3818",528003-2WBTT-link1,FTE,,America/New_York,SR-528,West,528-003_2-WB-TT,Unknown,FDOT,AVI,28.422406,-81.422311,,"55","60",1.4,,,,,,,,10.000000000000000,14.000000000000000,,
"4926",528-004_3-EB-LNK,FTE,,America/New_York,SR-528,West,528-004_3-WB-VDS,Unknown,FDOT,Radar,28.433358,-81.409734,,"55","60",,,,,,,,,10.000000000000000,14.000000000000000,,
"5106",528-003_9-WB-LNK,FTE,,America/New_York,SR-528,West,528-003_8-EB-VDS,Unknown,FDOT,Radar,28.429466,-81.415018,,"55","60",,,,,,,,,10.000000000000000,14.000000000000000,,
"5298",528004-3WBTT-link1,FTE,,America/New_York,SR-528,West,528-004_3-WB-TT,Unknown,FDOT,AVI,28.433196,-81.409961,,"55","60",1.1,,,,,,,,10.000000000000000,14.000000000000000,,
"16080",528-003_7WB-LNK,FTE,,America/New_York,SR-528,West,528-003_7-EB-VDS,Unknown,FDOT,Radar,28.427055,-81.417175,,"70","60",,,,,,,,,10.000000000000000,14.000000000000000,,
"16094",528-003_2-WB-LNK,FTE,,America/New_York,SR-528,West,528-003_2-WB-VDS,Unknown,FDOT,Radar,28.422406,-81.422311,,"70","60",,,,,,,,,10.000000000000000,14.000000000000000,,
"16104",528-004_3-WB-LNK,FTE,,America/New_York,SR-528,West,528-004_3-WB-VDS,Unknown,FDOT,Radar,28.432822,-81.409431,,"65","60",,,,,,,,,10.000000000000000,14.000000000000000,,
"16106",528-003_9-WB-LNK,FTE,,America/New_York,SR-528,West,528-003_9-WB-VDS,Unknown,FDOT,Radar,28.429466,-81.415018,,"70","60",,,,,,,,,10.000000000000000,14.000000000000000,,
"3535",528-002_7-EB-LNK,FTE,,America/New_York,SR-528,East,528-002_7-EB-VDS,Unknown,FDOT,Radar,28.420849,-81.430832,,"55","60",,,,,,,,,5.000000000000000,10.000000000000000,,
"3537",528-001_5-EB-LNK,FTE,,America/New_York,SR-528,East,528-001_5-EB-VDS,Unknown,FDOT,Radar,28.420751,-81.449802,,"55","60",,,,,,,,,5.000000000000000,10.000000000000000,,
"3539",528-001-1-EB-LNK,FTE,,America/New_York,SR-528,East,528-001_1-EB-VDS,Unknown,FDOT,Radar,28.420581,-81.455344,,"55","60",,,,,,,,,5.000000000000000,10.000000000000000,,
"3541",528-001_8-EB-LNK,FTE,,America/New_York,SR-528,East,528-001_9-EB-VDS,Unknown,FDOT,Radar,28.420692,-81.443282,,"65","60",,,,,,,,,5.000000000000000,10.000000000000000,,
"5097",528-002_4-EB-LNK,FTE,,America/New_York,SR-528,East,528-002_6-EB-VDS,Unknown,FDOT,Radar,28.420849,-81.430833,,"55","60",,,,,,,,,5.000000000000000,10.000000000000000,,
"5128",528-000-2EMD-LNK,FTE,,America/New_York,SR-528,East,528-000_2-MD-VDS,Unknown,FDOT,Radar,28.420877,-81.470273,,"55","60",,,,,,,,,5.000000000000000,10.000000000000000,,
"5136",528-000_7-EB-LNK,FTE,,America/New_York,SR-528,East,528-000_7-WB-VDS,Unknown,FDOT,Radar,28.421211,-81.462861,,"55","60",,,,,,,,,5.000000000000000,10.000000000000000,,
"5480",528002-6EBTT-link1,FTE,,America/New_York,SR-528,East,528-002_6-EB-TT,Unknown,FDOT,AVI,28.420855,-81.433017,,"55","60",0.5,,,,,,,,5.000000000000000,10.000000000000000,,
"5481",528002-6EBTT-link3,FTE,,America/New_York,SR-528,East,528-002_6-EB-TT,Unknown,FDOT,AVI,28.420855,-81.433017,,"55","60",5.6,,,,,,,,5.000000000000000,10.000000000000000,,
"5572",528003-1EBTT-LNK,FTE,,America/New_York,SR-528,East,528-003_1-EB-TT,Unknown,FDOT,AVI,28.421433,-81.423598,,"55","60",1.2,,,,,,,,5.000000000000000,10.000000000000000,,
"14390",528-002_6-EB-LNK,FTE,,America/New_York,SR-528,East,528-002_6-EB-VDS,Unknown,FDOT,Radar,28.420849,-81.430833,,"55","60",,,,,,,,,5.000000000000000,10.000000000000000,,
"14510",528-000_3-EB-LNK,FTE,,America/New_York,SR-528,East,528-000-2-WB-VDS,Unknown,FDOT,Radar,28.421076,-81.470272,,"65","60",,,,,,,,,5.000000000000000,10.000000000000000,,
"14776",528-002_4-EB-LNK,FTE,,America/New_York,SR-528,East,528-002_4-EB-VDS,Unknown,FDOT,Radar,28.4208,-81.434686,,"65","60",,,,,,,,,5.000000000000000,10.000000000000000,,
"14777",528-002_7-EB-LNK,FTE,,America/New_York,SR-528,East,528-002_7-EB-VDS,Unknown,FDOT,Radar,28.420849,-81.430832,,"55","60",,,,,,,,,5.000000000000000,10.000000000000000,,
"14780",528-001_2-EB-LNK,FTE,,America/New_York,SR-528,East,528-001_1-EB-VDS,Unknown,FDOT,Radar,28.420581,-81.455344,,"55","60",,,,,,,,,5.000000000000000,10.000000000000000,,
"16084",528-001_2-EB-LNK,FTE,,America/New_York,SR-528,East,528-001_2-EB-VDS,Unknown,FDOT,Radar,28.420919,-81.457164,,"70","60",,,,,,,,,5.000000000000000,10.000000000000000,,
"16086",528-000_3-EB-LNK,FTE,,America/New_York,SR-528,East,528-000_3-MD-E-VDS,Unknown,FDOT,Radar,28.420876,-81.470272,,"60","60",,,,,,,,,5.000000000000000,10.000000000000000,,
"16088",528-001_5-EB-LNK,FTE,,America/New_York,SR-528,East,528-001_5-EB-VDS,Unknown,FDOT,Radar,28.420751,-81.449802,,"70","60",,,,,,,,,5.000000000000000,10.000000000000000,,
"16090",528-000_8-EB-LNK,FTE,,America/New_York,SR-528,East,528-000_8-EB-VDS,Unknown,FDOT,Radar,28.420825,-81.465039,,"70","60",,,,,,,,,5.000000000000000,10.000000000000000,,
"16092",528-001_8-EB-LNK,FTE,,America/New_York,SR-528,East,528-001_8-WB-VDS,Unknown,FDOT,Radar,28.420881,-81.44454,,"70","60",,,,,,,,,5.000000000000000,10.000000000000000,,
"16096",528-003_1-EB-LNK,FTE,,America/New_York,SR-528,East,528-003_1-EB-VDS,Unknown,FDOT,Radar,28.421432,-81.423598,,"70","60",,,,,,,,,5.000000000000000,10.000000000000000,,
"16098",528-002_7-EB-LNK,FTE,,America/New_York,SR-528,East,528-002_7-EB-VDS,Unknown,FDOT,Radar,28.42148,-81.43218,,"70","60",,,,,,,,,5.000000000000000,10.000000000000000,,
"16100",528-002_4-EB-LNK,FTE,,America/New_York,SR-528,East,528-002_4-EB-W-VDS new,Unknown,FDOT,Radar,28.420799,-81.434685,,"55","60",,,,,,,,,5.000000000000000,10.000000000000000,,
"16110",528-002_4-EB-LNK,FTE,,America/New_York,SR-528,East,528-002_4-EB-E-VDS new,Unknown,FDOT,Radar,28.420799,-81.434685,,"55","60",,,,,,,,,5.000000000000000,10.000000000000000,,
"16231",528-002_4-EB-LNK,FTE,,America/New_York,SR-528,East,528-002_4-EB-VDS,Unknown,FDOT,Radar,28.420799,-81.434685,,"70","60",,,,,,,,,5.000000000000000,10.000000000000000,,
"16232",528-000_3-EB-LNK,FTE,,America/New_York,SR-528,East,528-000_3-MD-E-VDS,Unknown,FDOT,Radar,28.420876,-81.470272,,"60","60",,,,,,,,,5.000000000000000,10.000000000000000,,
"16442",528-000_3-MD-E-LNK,FTE,,America/New_York,SR-528,East,528-000_3-MD-E-VDS,Unknown,FDOT,Radar,28.420876,-81.470272,,"60","60",,,,,,,,,5.000000000000000,10.000000000000000,,
"3534",528-001_8-WB-LNK,FTE,,America/New_York,SR-528,West,528-001_9-WB-VDS,Unknown,FDOT,Radar,28.421448,-81.443444,,"55","60",,,,,,,,,5.000000000000000,10.000000000000000,,
"3536",528-002_7-WB-LNK,FTE,,America/New_York,SR-528,West,528-002_7-EB-VDS,Unknown,FDOT,Radar,28.420849,-81.430832,,"55","60",,,,,,,,,5.000000000000000,10.000000000000000,,
"3538",528001-5WB-LNK,FTE,,America/New_York,SR-528,West,528001-5EBVD,Unknown,FDOT,Radar,28.420751,-81.449802,,"55","60",,,,,,,,,5.000000000000000,10.000000000000000,,
"3540",528-001_2-WB-LNK,FTE,,America/New_York,SR-528,West,528-001_1-EB-VDS,Unknown,FDOT,Radar,28.420581,-81.455344,,"55","60",,,,,,,,,5.000000000000000,10.000000000000000,,
"3821",528001-8WBTT-link1,FTE,,America/New_York,SR-528,West,528-001_8-WB-TT,Unknown,FDOT,AVI,28.421343,-81.444802,,"55","60",0.9,,,,,,,,5.000000000000000,10.000000000000000,,
"5096",528-002_4-WB-LNK,FTE,,America/New_York,SR-528,West,528-002_4-EB-VDS,Unknown,FDOT,Radar,28.4208,-81.434686,,"65","60",,,,,,,,,5.000000000000000,10.000000000000000,,
"5121",528-000_3-WB-LNK,FTE,,America/New_York,SR-528,West,528-000-2-WB-VDS,Unknown,FDOT,Radar,28.421076,-81.470272,,"65","60",,,,,,,,,5.000000000000000,10.000000000000000,,
"5135",528-000_8-WB-LNK,FTE,,America/New_York,SR-528,West,528-000_7-WB-VDS,Unknown,FDOT,Radar,28.421211,-81.462861,,"55","60",,,,,,,,,5.000000000000000,10.000000000000000,,
"5468",528000-9WBTT-link1,FTE,,America/New_York,SR-528,West,528-000_9-WB-TT,Unknown,FDOT,AVI,28.42116,-81.46033,,"55","60",0.4,,,,,,,,5.000000000000000,10.000000000000000,,
"14387",528-002_6-WB-LNK,FTE,,America/New_York,SR-528,West,528-002_6-EB-VDS,Unknown,FDOT,Radar,28.420849,-81.430833,,"55","60",,,,,,,,,5.000000000000000,10.000000000000000,,
"14388",528-001_5-WB-LNK,FTE,,America/New_York,SR-528,West,528-001_5-EB-VDS,Unknown,FDOT,Radar,28.420751,-81.449802,,"55","60",,,,,,,,,5.000000000000000,10.000000000000000,,
"14778",528-002_7-WB-LNK,FTE,,America/New_York,SR-528,West,528-002_7-EB-VDS,Unknown,FDOT,Radar,28.420849,-81.430832,,"55","60",,,,,,,,,5.000000000000000,10.000000000000000,,
"14779",528-001_8-WB-LNK,FTE,,America/New_York,SR-528,West,528-001_9-EB-VDS,Unknown,FDOT,Radar,28.420692,-81.443282,,"65","60",,,,,,,,,5.000000000000000,10.000000000000000,,
"16085",528-001_2-WB-LNK,FTE,,America/New_York,SR-528,West,528-001_2-EB-VDS,Unknown,FDOT,Radar,28.420919,-81.457164,,"70","60",,,,,,,,,5.000000000000000,10.000000000000000,,
"16087",528-000_3-WB-LNK,FTE,,America/New_York,SR-528,West,528-000_3-MD-E-VDS,Unknown,FDOT,Radar,28.420876,-81.470272,,"60","60",,,,,,,,,5.000000000000000,10.000000000000000,,
"16089",528-001_5-WB-LNK,FTE,,America/New_York,SR-528,West,528-001_5-EB-VDS,Unknown,FDOT,Radar,28.420751,-81.449802,,"70","60",,,,,,,,,5.000000000000000,10.000000000000000,,
"16091",528-000_8-WB-LNK,FTE,,America/New_York,SR-528,West,528-000_8-EB-VDS,Unknown,FDOT,Radar,28.420825,-81.465039,,"70","60",,,,,,,,,5.000000000000000,10.000000000000000,,
"16093",528-001_8-WB-LNK,FTE,,America/New_York,SR-528,West,528-001_8-WB-VDS,Unknown,FDOT,Radar,28.420881,-81.44454,,"70","60",,,,,,,,,5.000000000000000,10.000000000000000,,
"16097",528-003_1-WB-LNK,FTE,,America/New_York,SR-528,West,528-003_1-EB-VDS,Unknown,FDOT,Radar,28.421432,-81.423598,,"70","60",,,,,,,,,5.000000000000000,10.000000000000000,,
"16099",528-002_7-WB-LNK,FTE,,America/New_York,SR-528,West,528-002_7-EB-VDS new,Unknown,FDOT,Radar,28.42148,-81.43218,,"70","60",,,,,,,,,5.000000000000000,10.000000000000000,,
"16101",528-002_4-WB-LNK,FTE,,America/New_York,SR-528,West,528-002_4-EB-W-VDS new,Unknown,FDOT,Radar,28.420799,-81.434685,,"55","60",,,,,,,,,5.000000000000000,10.000000000000000,,
"16111",528-002_4-WB-LNK,FTE,,America/New_York,SR-528,West,528-002_4-EB-E-VDS new,Unknown,FDOT,Radar,28.420799,-81.434685,,"55","60",,,,,,,,,5.000000000000000,10.000000000000000,,
"16230",528-002_4-WB-LNK,FTE,,America/New_York,SR-528,West,528-002_4-EB-VDS,Unknown,FDOT,Radar,28.420799,-81.434685,,"70","60",,,,,,,,,5.000000000000000,10.000000000000000,,
"16233",528-000_3-WB-LNK,FTE,,America/New_York,SR-528,West,528-000_3-MD-E-VDS,Unknown,FDOT,Radar,28.420876,-81.470272,,"60","60",,,,,,,,,5.000000000000000,10.000000000000000,,
"16440",528-000_3-MD-W-LNK,FTE,,America/New_York,SR-528,West,528-000_3-MD-W-VDS,Unknown,FDOT,Radar,28.420878,-81.470274,,"60","60",,,,,,,,,5.000000000000000,10.000000000000000,,
"16444",528-002_7-WB-LNK,FTE,,America/New_York,SR-528,West,528-002_7-EB-VDS,Unknown,FDOT,Radar,28.42148,-81.43218,,"70","60",,,,,,,,,5.000000000000000,10.000000000000000,,
"3816",417003-5NBTT-link1,FTE,,America/New_York,SR-417,North,417-003_5-NB-TT,Unknown,FDOT,AVI,28.341833,-81.516875,,"65","60",2.4,,,,,,,,4.000000000000000,6.000000000000000,,
"4038",417003-5NB-LNK,FTE,,America/New_York,SR-417,North,417-003_5-SB-VDS,Unknown,FDOT,Radar,28.342099,-81.51724,,"65","60",,,,,,,,,4.000000000000000,6.000000000000000,,
"5552",417005-7NB-LNK,FTE,,America/New_York,SR-417,North,417-005_7-NB-VDS,Unknown,FDOT,Radar,28.3556,-81.485259,,"65","60",,,,,,,,,4.000000000000000,6.000000000000000,,
"5592",417005-2NB-LNK,FTE,,America/New_York,SR-417,North,417-005_2-NB-VDS,Unknown,FDOT,Radar,28.351179,-81.491757,,"65","60",,,,,,,,,4.000000000000000,6.000000000000000,,
"5597",417-004-7NB-LNK,FTE,,America/New_York,SR-417,North,417-004_7-NB-VDS,Unknown,FDOT,Radar,28.347788,-81.498582,,"65","60",,,,,,,,,4.000000000000000,6.000000000000000,,
"5659",417004-2NB-LNK,FTE,,America/New_York,SR-417,North,417-004_2-SB-VDS,Unknown,FDOT,Radar,28.348224,-81.506402,,"65","60",,,,,,,,,4.000000000000000,6.000000000000000,,
"14432",417-003-8NB-LNK,FTE,,America/New_York,SR-417,North,417-003_8-NB-VDS,Unknown,FDOT,Radar,28.34603,-81.511809,,"65","60",,,,,,,,,4.000000000000000,6.000000000000000,,
"14434",417-004-2NB-LNK,FTE,,America/New_York,SR-417,North,417-004_2-SB-VDS,Unknown,FDOT,Radar,28.348224,-81.506402,,"60","60",,,,,,,,,4.000000000000000,6.000000000000000,,
"14435",417-003-4NB-LNK,FTE,,America/New_York,SR-417,North,417-003_4-SB-VDS,Unknown,FDOT,Radar,28.342099,-81.51724,,"65","60",,,,,,,,,4.000000000000000,6.000000000000000,,
"14437",417-005-6NB-LNK,FTE,,America/New_York,SR-417,North,417-005_6-NB-VDS,Unknown,FDOT,Radar,28.3556,-81.485259,,"65","60",,,,,,,,,4.000000000000000,6.000000000000000,,
"14438",417-005-1MD-N-LNK,FTE,,America/New_York,SR-417,North,417-005_1-MD-NB-VDS,Unknown,FDOT,Radar,28.351179,-81.491757,,"65","60",,,,,,,,,4.000000000000000,6.000000000000000,,
"16134",417-005-1MD-N-LNK,FTE,,America/New_York,SR-417,North,417-005_1-MD-NB-VDS,Unknown,FDOT,Radar,28.351179,-81.491757,,"55","60",,,,,,,,,4.000000000000000,6.000000000000000,,
"3516",417003-5SBTT-link1,FTE,,America/New_York,SR-417,South,417-003_5-SB-TT,Unknown,FDOT,AVI,28.342099,-81.51724,,"65","60",1.4,,,,,,,,4.000000000000000,6.000000000000000,,
"4037",417003-5SB-LNK,FTE,,America/New_York,SR-417,South,417-003_5-SB-VDS,Unknown,FDOT,Radar,28.342099,-81.51724,,"65","60",,,,,,,,,4.000000000000000,6.000000000000000,,
"5062",417004-2SBTT-link1,FTE,,America/New_York,SR-417,South,417-004_2-SB-TT,Unknown,FDOT,AVI,28.348,-81.507889,,"65","60",0.7,,,,,,,,4.000000000000000,6.000000000000000,,
"5553",417005-7SB-LNK,FTE,,America/New_York,SR-417,South,417-005_7-NB-VDS,Unknown,FDOT,Radar,28.3556,-81.485259,,"65","60",,,,,,,,,4.000000000000000,6.000000000000000,,
"5556",417005-2SB-LNK,FTE,,America/New_York,SR-417,South,417-005_2-SB-VDS,Unknown,FDOT,Radar,28.351179,-81.491757,,"65","60",,,,,,,,,4.000000000000000,6.000000000000000,,
"5598",417-004-7SB-LNK,FTE,,America/New_York,SR-417,South,417-004_7-NB-VDS,Unknown,FDOT,Radar,28.347788,-81.498582,,"65","60",,,,,,,,,4.000000000000000,6.000000000000000,,
"5658",417004-2SB-LNK,FTE,,America/New_York,SR-417,South,417-004_2-SB-VDS,Unknown,FDOT,Radar,28.348224,-81.506402,,"65","60",,,,,,,,,4.000000000000000,6.000000000000000,,
"14424",417-004-2SB-LNK,FTE,,America/New_York,SR-417,South,417-003_8-NB-VDS,Unknown,FDOT,Radar,28.34603,-81.511809,,"65","60",,,,,,,,,4.000000000000000,6.000000000000000,,
"14426",417-003-4SB-LNK,FTE,,America/New_York,SR-417,South,417-003_4-SB-VDS,Unknown,FDOT,Radar,28.342099,-81.51724,,"65","60",,,,,,,,,4.000000000000000,6.000000000000000,,
"14428",417-005-6SB-LNK,FTE,,America/New_York,SR-417,South,417-005_6-NB-VDS,Unknown,FDOT,Radar,28.3556,-81.485259,,"65","60",,,,,,,,,4.000000000000000,6.000000000000000,,
"14429",417-005-1MD-S-LNK,FTE,,America/New_York,SR-417,South,417-005_1-MD-NB-VDS,Unknown,FDOT,Radar,28.351179,-81.491757,,"65","60",,,,,,,,,4.000000000000000,6.000000000000000,,
"14431",417-003-8SB-LNK,FTE,,America/New_York,SR-417,South,417-003_8-NB-VDS,Unknown,FDOT,Radar,28.34603,-81.511809,,"65","60",,,,,,,,,4.000000000000000,6.000000000000000,,
"16133",417-005-1MD-S-LNK,FTE,,America/New_York,SR-417,South,417-005_1-MD-SB-VDS,Unknown,FDOT,Radar,28.351179,-81.491757,,"55","60",,,,,,,,,4.000000000000000,6.000000000000000,,
"16197",417-004-2SB-LNK,FTE,,America/New_York,SR-417,South,417-004_2-SB-VDS,Unknown,FDOT,Radar,28.348224,-81.506402,,"60","60",,,,,,,,,4.000000000000000,6.000000000000000,,
"6916",TMS-417-07.5-NB,OOCEA,,America/New_York,SR-417,North,TMS-417-07.5-NB,Unknown,FDOT,Radar,28.355847,-81.456755,,"65","60",0.5,,,,,,,,4.000000000000000,6.000000000000000,,
"6959",TMS-417-08.2-NB,OOCEA,,America/New_York,SR-417,North,TMS-417-08.2-NB,Unknown,FDOT,Radar,28.358058,-81.447911,,"70","60",0.5,,,,,,,,4.000000000000000,6.000000000000000,,
"7010",TMS-417-07.2-NB,OOCEA,,America/New_York,SR-417,North,TMS-417-07.2-NB,Unknown,FDOT,Radar,28.354697,-81.462191,,"65","60",0.5,,,,,,,,4.000000000000000,6.000000000000000,,
"8287",TMS-417-09.4-NB,OOCEA,,America/New_York,SR-417,North,TMS-417-09.4-NB,Unknown,FDOT,Radar,28.369031,-81.429926,,"65","60",0.5,,,,,,,,4.000000000000000,6.000000000000000,,
"8288",TMS-417-09.4-NB-Rmp,OOCEA,,America/New_York,SR-417,North,TMS-417-09.4-NB,Unknown,FDOT,Radar,28.369031,-81.429926,,"50","60",0.5,,,,,,,,4.000000000000000,6.000000000000000,,
"8581",TMS-417-06.2-NB,OOCEA,,America/New_York,SR-417,North,TMS-417-06.2-NB,Unknown,FDOT,Radar,28.356251,-81.476714,,"65","60",0.5,,,,,,,,4.000000000000000,6.000000000000000,,
"8582",TMS-417-06.2-NB-Rmp,OOCEA,,America/New_York,SR-417,North,TMS-417-06.2-NB,Unknown,FDOT,Radar,28.356251,-81.476714,,"50","60",0.5,,,,,,,,4.000000000000000,6.000000000000000,,
"6071",TMS-417-07.2-SB,OOCEA,,America/New_York,SR-417,South,TMS-417-07.2-SB,Unknown,FDOT,Radar,28.355182,-81.462191,,"65","60",0.5,,,,,,,,4.000000000000000,6.000000000000000,,
"6889",TMS-417-07.5-SB,OOCEA,,America/New_York,SR-417,South,TMS-417-07.5-SB,Unknown,FDOT,Radar,28.356378,-81.456755,,"65","60",0.5,,,,,,,,4.000000000000000,6.000000000000000,,
"6975",TMS-417-08.2-SB,OOCEA,,America/New_York,SR-417,South,TMS-417-08.2-SB,Unknown,FDOT,Radar,28.358342,-81.447911,,"65","60",0.5,,,,,,,,4.000000000000000,6.000000000000000,,
"8292",TMS-417-09.4-SB,OOCEA,,America/New_York,SR-417,South,TMS-417-09.4-SB,Unknown,FDOT,Radar,28.369095,-81.430706,,"65","60",0.5,,,,,,,,4.000000000000000,6.000000000000000,,
"8293",TMS-417-09.4-SB-Rmp,OOCEA,,America/New_York,SR-417,South,TMS-417-09.4-SB,Unknown,FDOT,Radar,28.369095,-81.430706,,"50","60",0.5,,,,,,,,4.000000000000000,6.000000000000000,,
"8579",TMS-417-06.2-SB,OOCEA,,America/New_York,SR-417,South,TMS-417-06.2-SB,Unknown,FDOT,Radar,28.356699,-81.476714,,"65","60",0.5,,,,,,,,4.000000000000000,6.000000000000000,,
"8580",TMS-417-06.2-SB-Rmp,OOCEA,,America/New_York,SR-417,South,TMS-417-06.2-SB,Unknown,FDOT,Radar,28.356699,-81.476714,,"50","60",0.5,,,,,,,,4.000000000000000,6.000000000000000,,
"5478",091-250-9NB-LNK,FTE,,America/New_York,Floridas Turnpike,North,091-250_9-NB-VDS,Unknown,FDOT,Radar,28.368573,-81.391341,,"70","60",,,,,,,,,9.000000000000000,15.000000000000000,,
"5479",091-250-9NSB-LNK,FTE,,America/New_York,Floridas Turnpike,South,091-250_9-NB-VDS,Unknown,FDOT,Radar,28.368573,-81.391341,,"70","60",,,,,,,,,9.000000000000000,15.000000000000000,,
"8283",TMS-417-11.2-SB,OOCEA,,America/New_York,SR-417,South,TMS-417-11.2-SB,Unknown,FDOT,Radar,28.372588,-81.40413,,"65","60",0.5,,,,,,,,9.000000000000000,15.000000000000000,,
"8284",TMS-417-11.2-SB-Rmp,OOCEA,,America/New_York,SR-417,South,TMS-417-11.2-SB,Unknown,FDOT,Radar,28.372588,-81.40413,,"50","60",0.5,,,,,,,,9.000000000000000,15.000000000000000,,
"3816",417003-5NBTT-link1,FTE,,America/New_York,SR-417,North,417-003_5-NB-TT,Unknown,FDOT,AVI,28.341833,-81.516875,,"65","60",2.4,,,,,,,,4.000000000000000,7.000000000000000,,
"6247",RSE-27_JYP_SR528W-NB,District 5,Orlando,America/New_York,John Young Parkway,North,RSE-27_JYP_SR528W,Unknown,FDOT,OBE,28.424861,-81.423221,,,"20",1,,,,,,,,13.000000000000000,10.000000000000000,,
"7022",RSE-27_JYP_SR528W-SB,District 5,Orlando,America/New_York,John Young Parkway,South,RSE-27_JYP_SR528W,Unknown,FDOT,OBE,28.424861,-81.423221,,,"20",1,,,,,,,,13.000000000000000,10.000000000000000,,
"3489",091-257-7NB-LNK,FTE,,America/New_York,Floridas Turnpike,North,091-257_7-NB-VDS,Unknown,FDOT,Radar,28.456064,-81.42608,,"70","60",,,,,,,,,13.000000000000000,10.000000000000000,,
"5856",091-257-7NSB-LNK,FTE,,America/New_York,Floridas Turnpike,South,091-257_7-NB-VDS,Unknown,FDOT,Radar,28.456064,-81.42608,,"70","60",,,,,,,,,13.000000000000000,10.000000000000000,,
"5100",528-003_1-EB-LNK,FTE,,America/New_York,SR-528,East,528-003_1-EB-VDS,Unknown,FDOT,Radar,28.422701,-81.422546,,"65","60",,,,,,,,,13.000000000000000,10.000000000000000,,
"14391",528-003_2-EB-LNK,FTE,,America/New_York,SR-528,East,528-003_2-EWB-VDS,Unknown,FDOT,Radar,28.422701,-81.422546,,"55","60",,,,,,,,,13.000000000000000,10.000000000000000,,
"16095",528-003_2-EB-LNK,FTE,,America/New_York,SR-528,East,528-003_2-WB-VDS,Unknown,FDOT,Radar,28.422406,-81.422311,,"70","60",,,,,,,,,13.000000000000000,10.000000000000000,,
"3531",528-003_2-WB-LNK,FTE,,America/New_York,SR-528,West,528-003_2-EWB-VDS,Unknown,FDOT,Radar,28.422701,-81.422546,,"55","60",,,,,,,,,13.000000000000000,10.000000000000000,,
"3818",528003-2WBTT-link1,FTE,,America/New_York,SR-528,West,528-003_2-WB-TT,Unknown,FDOT,AVI,28.422406,-81.422311,,"55","60",1.4,,,,,,,,13.000000000000000,10.000000000000000,,
"14774",528-003_1-WB-LNK,FTE,,America/New_York,SR-528,West,528-003_1-EB-VDS,Unknown,FDOT,Radar,28.422701,-81.422546,,"65","60",,,,,,,,,13.000000000000000,10.000000000000000,,
"16094",528-003_2-WB-LNK,FTE,,America/New_York,SR-528,West,528-003_2-WB-VDS,Unknown,FDOT,Radar,28.422406,-81.422311,,"70","60",,,,,,,,,13.000000000000000,10.000000000000000,,
"6141",I-4 @ Turnpike-link1,District 5,Orlando,America/New_York,I-4,East,I-4 @ Turnpike-OLD,Unknown,FDOT,Single Loop,28.4786,-81.45,,"65","30",,,,,,,,,11.000000000000000,12.000000000000000,,
"6328",RSE-04_I-4_Turnpike-EB,District 5,Orlando,America/New_York,I-4,East,RSE-04_I-4_Turnpike,Unknown,FDOT,OBE,28.478745,-81.448873,,,"20",1,,,,,,,,11.000000000000000,12.000000000000000,,
"6383",RSE-05_I-4_W_of_Turnpike-EB,District 5,Orlando,America/New_York,I-4,East,RSE-05_I-4_W_of_Turnpike,Unknown,FDOT,OBE,28.474595,-81.454487,,,"20",1,,,,,,,,11.000000000000000,12.000000000000000,,
"6572",I-4 J W of Turnpike-EB,District 5,Orlando,America/New_York,I-4,East,I-4 Just W of Turnpike,Unknown,FDOT,Single Loop,28.4739,-81.4552,,"55","30",,,,,,,,,11.000000000000000,12.000000000000000,,
"6860",RSE-06_I-4_SR-435-EB,District 5,Orlando,America/New_York,I-4,East,RSE-06_I-4_SR-435,Unknown,FDOT,OBE,28.468361,-81.458643,,,"20",1,,,,,,,,11.000000000000000,12.000000000000000,,
"9763",I-4 EB @ MM 075.9-EB,District 5,,America/New_York,I-4,East,MVDS: I-4 at ORA MM075.9 ES,Unknown,FDOT,Radar,28.473708,-81.455039,,"60","30",0.8,,,,,,,,11.000000000000000,12.000000000000000,,
"9775",I-4 EB @ MM 076.4-EB,District 5,,America/New_York,I-4,East,MVDS: I-4 at ORA MM076.4 ES,Unknown,FDOT,Radar,28.478161,-81.449456,,"60","30",0.5,,,,,,,,11.000000000000000,12.000000000000000,,
"6329",RSE-04_I-4_Turnpike-WB,District 5,Orlando,America/New_York,I-4,West,RSE-04_I-4_Turnpike,Unknown,FDOT,OBE,28.478745,-81.448873,,,"20",1,,,,,,,,11.000000000000000,12.000000000000000,,
"6384",RSE-05_I-4_W_of_Turnpike-WB,District 5,Orlando,America/New_York,I-4,West,RSE-05_I-4_W_of_Turnpike,Unknown,FDOT,OBE,28.474595,-81.454487,,,"20",1,,,,,,,,11.000000000000000,12.000000000000000,,
"6511",I-4 @ Turnpike-link2,District 5,Orlando,America/New_York,I-4,West,I-4 @ Turnpike-OLD,Unknown,FDOT,Single Loop,28.4786,-81.45,,"65","30",,,,,,,,,11.000000000000000,12.000000000000000,,
"6861",RSE-06_I-4_SR-435-WB,District 5,Orlando,America/New_York,I-4,West,RSE-06_I-4_SR-435,Unknown,FDOT,OBE,28.468361,-81.458643,,,"20",1,,,,,,,,11.000000000000000,12.000000000000000,,
"7038",I-4 J W of Turnpike-WB,District 5,Orlando,America/New_York,I-4,West,I-4 Just W of Turnpike,Unknown,FDOT,Single Loop,28.4739,-81.4552,,"55","30",,,,,,,,,11.000000000000000,12.000000000000000,,
"9776",I-4 EB @ MM 076.4-WB,District 5,,America/New_York,I-4,West,MVDS: I-4 at ORA MM076.4 ES,Unknown,FDOT,Radar,28.478161,-81.449456,,"60","30",0.5,,,,,,,,11.000000000000000,12.000000000000000,,
"13080",I-4 EB @ MM 075.9-WB,District 5,,America/New_York,I-4,West,MVDS: I-4 at ORA MM075.9 ES,Unknown,FDOT,Radar,28.473708,-81.455039,,"60","30",0.5,,,,,,,,11.000000000000000,12.000000000000000,,
"6202",US441 @ SR417 - NB,District 5,Orlando,America/New_York,US-441 / Orange Blossom Trl,North,US441 @ SR417 North,Unknown,FDOT,AVI,28.37346,-81.40383,,"50","30",4.3,,,,,,,,9.000000000000000,14.000000000000000,,
"11540",US-441 WhsprLk-TaftVlnd NB,District 5,,America/New_York,US-441 / Orange Blossom Trl,North,BM: US-441 at ORA WhisperLakeBlvd SS,Unknown,FDOT,AVI,28.399933,-81.40485,,"45","300",1.6,,,,,,,,9.000000000000000,14.000000000000000,,
"11542",US-441 Wetherbee-WhsprLk NB,District 5,,America/New_York,US-441 / Orange Blossom Trl,North,BM: US-441 at ORA WetherbeeRd SS,Unknown,FDOT,AVI,28.3886,-81.404833,,"45","300",0.7,,,,,,,,9.000000000000000,14.000000000000000,,
"11543",US-441 SR-417-Wetherbee NB,District 5,,America/New_York,US-441 / Orange Blossom Trl,North,BM: US-441 at ORA SR-417 NS,Unknown,FDOT,AVI,28.373483,-81.404317,,"45","300",1,,,,,,,,9.000000000000000,14.000000000000000,,
"13535",US-441 @ SR-417 NB,District 5,,America/New_York,US-441 / Orange Blossom Trl,North,MVDS: US-441 at ORA SR-417 NS,Unknown,FDOT,Radar,28.373183,-81.404317,,"50","30",0.9,,,,,,,,9.000000000000000,14.000000000000000,,
"13537",US-441 @ Wetherbee NB,District 5,,America/New_York,US-441 / Orange Blossom Trl,North,MVDS: US-441 at ORA Wetherbee Rd SS,Unknown,FDOT,Radar,28.3883,-81.404833,,"50","30",1,,,,,,,,9.000000000000000,14.000000000000000,,
"13540",US-441 @ Whisper Lk NB,District 5,,America/New_York,US-441 / Orange Blossom Trl,North,MVDS: US-441 at ORA Whisper Lake Blvd SS,Unknown,FDOT,Radar,28.399633,-81.40485,,"50","30",0.6,,,,,,,,9.000000000000000,14.000000000000000,,
"13542",US-441 @ TaftVineland NB,District 5,,America/New_York,US-441 / Orange Blossom Trl,North,MVDS: US-441 at ORA Taft Vineland Rd NS,Unknown,FDOT,Radar,28.418367,-81.4044,,"50","30",1.6,,,,,,,,9.000000000000000,14.000000000000000,,
"11537",US-441 TaftVlnd-WhsprLk SB,District 5,,America/New_York,US-441 / Orange Blossom Trl,South,BM: US-441 at ORA TaftVinelandRd NS,Unknown,FDOT,AVI,28.418667,-81.4044,,"45","300",1.6,,,,,,,,9.000000000000000,14.000000000000000,,
"11539",US-441 WhsprLk-Wetherbee SB,District 5,,America/New_York,US-441 / Orange Blossom Trl,South,BM: US-441 at ORA WhisperLakeBlvd SS,Unknown,FDOT,AVI,28.399933,-81.40485,,"45","300",0.7,,,,,,,,9.000000000000000,14.000000000000000,,
"11544",US-441 Wetherbee-SR-417 SB,District 5,,America/New_York,US-441 / Orange Blossom Trl,South,BM: US-441 at ORA WetherbeeRd SS,Unknown,FDOT,AVI,28.3886,-81.404833,,"45","300",1,,,,,,,,9.000000000000000,14.000000000000000,,
"13244",US-441 SR-417-TwnCntrBlvd SB,District 5,,America/New_York,US-441 / Orange Blossom Trl,South,BM: US-441 at ORA SR-417 NS,Unknown,FDOT,AVI,28.373483,-81.404317,,"45","300",0.3,,,,,,,,9.000000000000000,14.000000000000000,,
"13536",US-441 @ SR-417 SB,District 5,,America/New_York,US-441 / Orange Blossom Trl,South,MVDS: US-441 at ORA SR-417 NS,Unknown,FDOT,Radar,28.373183,-81.404317,,"50","30",0.9,,,,,,,,9.000000000000000,14.000000000000000,,
"13538",US-441 @ Wetherbee SB,District 5,,America/New_York,US-441 / Orange Blossom Trl,South,MVDS: US-441 at ORA Wetherbee Rd SS,Unknown,FDOT,Radar,28.3883,-81.404833,,"50","30",1,,,,,,,,9.000000000000000,14.000000000000000,,
"13539",US-441 @ Whisper Lk SB,District 5,,America/New_York,US-441 / Orange Blossom Trl,South,MVDS: US-441 at ORA Whisper Lake Blvd SS,Unknown,FDOT,Radar,28.399633,-81.40485,,"50","30",0.6,,,,,,,,9.000000000000000,14.000000000000000,,
"13541",US-441 @ TaftVineland SB,District 5,,America/New_York,US-441 / Orange Blossom Trl,South,MVDS: US-441 at ORA Taft Vineland Rd NS,Unknown,FDOT,Radar,28.418367,-81.4044,,"50","30",1.6,,,,,,,,9.000000000000000,14.000000000000000,,
"8017",TMS-417-11.0-NB,OOCEA,,America/New_York,SR-417,North,TMS-417-11.0-NB,Unknown,FDOT,Radar,28.372748,-81.404947,,"70","60",0.5,,,,,,,,9.000000000000000,14.000000000000000,,
"8018",TMS-417-11.0-NB-Rmp,OOCEA,,America/New_York,SR-417,North,TMS-417-11.0-NB,Unknown,FDOT,Radar,28.372748,-81.404947,,"50","60",0.5,,,,,,,,9.000000000000000,14.000000000000000,,
"8283",TMS-417-11.2-SB,OOCEA,,America/New_York,SR-417,South,TMS-417-11.2-SB,Unknown,FDOT,Radar,28.372588,-81.40413,,"65","60",0.5,,,,,,,,9.000000000000000,14.000000000000000,,
"8284",TMS-417-11.2-SB-Rmp,OOCEA,,America/New_York,SR-417,South,TMS-417-11.2-SB,Unknown,FDOT,Radar,28.372588,-81.40413,,"50","60",0.5,,,,,,,,9.000000000000000,14.000000000000000,,
"8017",TMS-417-11.0-NB,OOCEA,,America/New_York,SR-417,North,TMS-417-11.0-NB,Unknown,FDOT,Radar,28.372748,-81.404947,,"70","60",0.5,,,,,,,,6.000000000000000,9.000000000000000,,
"8018",TMS-417-11.0-NB-Rmp,OOCEA,,America/New_York,SR-417,North,TMS-417-11.0-NB,Unknown,FDOT,Radar,28.372748,-81.404947,,"50","60",0.5,,,,,,,,6.000000000000000,9.000000000000000,,
"8107",TMS-417-10.1-NB,OOCEA,,America/New_York,SR-417,North,TMS-417-10.1-NB,Unknown,FDOT,Radar,28.374523,-81.42121,,"70","60",0.5,,,,,,,,6.000000000000000,9.000000000000000,,
"8108",TMS-417-10.1-NB-Rmp,OOCEA,,America/New_York,SR-417,North,TMS-417-10.1-NB,Unknown,FDOT,Radar,28.374523,-81.42121,,"50","60",0.5,,,,,,,,6.000000000000000,9.000000000000000,,
"8280",TMS-417-10.6-NB,OOCEA,,America/New_York,SR-417,North,TMS-417-10.6-NB,Unknown,FDOT,Radar,28.374923,-81.4125,,"65","60",0.5,,,,,,,,6.000000000000000,9.000000000000000,,
"8281",TMS-417-10.6-NB-Rmp,OOCEA,,America/New_York,SR-417,North,TMS-417-10.6-NB,Unknown,FDOT,Radar,28.374923,-81.4125,,"50","60",0.5,,,,,,,,6.000000000000000,9.000000000000000,,
"8277",TMS-417-10.7-SB,OOCEA,,America/New_York,SR-417,South,TMS-417-10.7-SB,Unknown,FDOT,Radar,28.375191,-81.410698,,"65","60",0.5,,,,,,,,6.000000000000000,9.000000000000000,,
"8278",TMS-417-10.7-SB-Rmp,OOCEA,,America/New_York,SR-417,South,TMS-417-10.7-SB,Unknown,FDOT,Radar,28.375191,-81.410698,,"50","60",0.5,,,,,,,,6.000000000000000,9.000000000000000,,
"8283",TMS-417-11.2-SB,OOCEA,,America/New_York,SR-417,South,TMS-417-11.2-SB,Unknown,FDOT,Radar,28.372588,-81.40413,,"65","60",0.5,,,,,,,,6.000000000000000,9.000000000000000,,
"8284",TMS-417-11.2-SB-Rmp,OOCEA,,America/New_York,SR-417,South,TMS-417-11.2-SB,Unknown,FDOT,Radar,28.372588,-81.40413,,"50","60",0.5,,,,,,,,6.000000000000000,9.000000000000000,,
"8290",TMS-417-10.3-SB,OOCEA,,America/New_York,SR-417,South,TMS-417-10.3-SB,Unknown,FDOT,Radar,28.375598,-81.418117,,"65","60",0.5,,,,,,,,6.000000000000000,9.000000000000000,,
"8291",TMS-417-10.3-SB-Rmp,OOCEA,,America/New_York,SR-417,South,TMS-417-10.3-SB,Unknown,FDOT,Radar,28.375598,-81.418117,,"50","60",0.5,,,,,,,,6.000000000000000,9.000000000000000,,
"3834",091-255-1NB-LNK,FTE,,America/New_York,Floridas Turnpike,North,091-255_1-SB-VDS,Unknown,FDOT,Radar,28.427171,-81.400615,,"70","60",,,,,,,,,14.000000000000000,15.000000000000000,,
"3836",091-255-0NB-LNK,FTE,,America/New_York,Floridas Turnpike,North,091-255_0-SB-VDS,Unknown,FDOT,Radar,28.425716,-81.398471,,"70","60",,,,,,,,,14.000000000000000,15.000000000000000,,
"3839",091-255-7NB-LNK,FTE,,America/New_York,Floridas Turnpike,North,091-255_7-SB-VDS,Unknown,FDOT,Radar,28.432713,-81.407961,,"70","60",,,,,,,,,14.000000000000000,15.000000000000000,,
"3846",091-254-2NB-LNK,FTE,,America/New_York,Floridas Turnpike,North,091-254_2-SB-VDS,Unknown,FDOT,Radar,28.417166,-81.392346,,"70","60",,,,,,,,,14.000000000000000,15.000000000000000,,
"3847",091-254-6NB-LNK,FTE,,America/New_York,Floridas Turnpike,North,091-254_6-NB-VDS,Unknown,FDOT,Radar,28.422079,-81.39407,,"70","60",,,,,,,,,14.000000000000000,15.000000000000000,,
"3850",091-252-4NB-LNK,FTE,,America/New_York,Floridas Turnpike,North,091-252_4-SB-VDS,Unknown,FDOT,Radar,28.390757,-81.391605,,"70","60",,,,,,,,,14.000000000000000,15.000000000000000,,
"3927",091255.2NBTT-link1,FTE,,America/New_York,Floridas Turnpike,North,091-255_2-NB-TT,Unknown,FDOT,AVI,28.427191,-81.399909,,"70","60",1.5,,,,,,,,14.000000000000000,15.000000000000000,,
"5276",091-252-9NB-LNK,FTE,,America/New_York,Floridas Turnpike,North,091-252_9-SB-VDS,Unknown,FDOT,Radar,28.397805,-81.391621,,"70","60",,,,,,,,,14.000000000000000,15.000000000000000,,
"5466",091251-9NB-LNK,FTE,,America/New_York,Floridas Turnpike,North,091-251.9NBVD,Unknown,FDOT,Radar,28.382943,-81.39097,,"70","60",,,,,,,,,14.000000000000000,15.000000000000000,,
"5488",091-253-4NB-LNK,FTE,,America/New_York,Floridas Turnpike,North,091-253_4-SB-VDS,Unknown,FDOT,Radar,28.404606,-81.391752,,"70","60",,,,,,,,,14.000000000000000,15.000000000000000,,
"5491",091-253-9NB-LNK,FTE,,America/New_York,Floridas Turnpike,North,091-253_9-SB-VDS,Unknown,FDOT,Radar,28.412178,-81.391723,,"70","60",,,,,,,,,14.000000000000000,15.000000000000000,,
"14028",091-251-4NB-LNK,FTE,,America/New_York,Floridas Turnpike,North,091-251_4-NB-VDS,Unknown,FDOT,Radar,28.37527,-81.389724,,"70","60",,,,,,,,,14.000000000000000,15.000000000000000,,
"3833",091-255-1NSB-LNK,FTE,,America/New_York,Floridas Turnpike,South,091-255_1-SB-VDS,Unknown,FDOT,Radar,28.427171,-81.400615,,"70","60",,,,,,,,,14.000000000000000,15.000000000000000,,
"3835",091-255-0NSB-LNK,FTE,,America/New_York,Floridas Turnpike,South,091-255_0-SB-VDS,Unknown,FDOT,Radar,28.425716,-81.398471,,"70","60",,,,,,,,,14.000000000000000,15.000000000000000,,
"3838",091-255-7NSB-LNK,FTE,,America/New_York,Floridas Turnpike,South,091-255_7-SB-VDS,Unknown,FDOT,Radar,28.431949,-81.407697,,"70","60",,,,,,,,,14.000000000000000,15.000000000000000,,
"3845",091-254-2NSB-LNK,FTE,,America/New_York,Floridas Turnpike,South,091-254_2-SB-VDS,Unknown,FDOT,Radar,28.417166,-81.392346,,"70","60",,,,,,,,,14.000000000000000,15.000000000000000,,
"3848",091-254-6NSB-LNK,FTE,,America/New_York,Floridas Turnpike,South,091-254_6-NB-VDS,Unknown,FDOT,Radar,28.422079,-81.39407,,"70","60",,,,,,,,,14.000000000000000,15.000000000000000,,
"3849",091-252-4NSB-LNK,FTE,,America/New_York,Floridas Turnpike,South,091-252_4-SB-VDS,Unknown,FDOT,Radar,28.390757,-81.391605,,"70","60",,,,,,,,,14.000000000000000,15.000000000000000,,
"3889",091255.2SBTT-link1,FTE,,America/New_York,Floridas Turnpike,South,091-255_2-SB-TT,Unknown,FDOT,AVI,28.427171,-81.400615,,"70","60",6.5,,,,,,,,14.000000000000000,15.000000000000000,,
"5275",091-252-9NSB-LNK,FTE,,America/New_York,Floridas Turnpike,South,091-252_9-SB-VDS,Unknown,FDOT,Radar,28.397805,-81.391621,,"70","60",,,,,,,,,14.000000000000000,15.000000000000000,,
"5278",091-253-4NSB-LNK,FTE,,America/New_York,Floridas Turnpike,South,091-253_4-SB-VDS,Unknown,FDOT,Radar,28.404606,-81.391752,,"70","60",,,,,,,,,14.000000000000000,15.000000000000000,,
"5467",091-251-4NSB-LNK,FTE,,America/New_York,Floridas Turnpike,South,091-251_4-NB-VDS,Unknown,FDOT,Radar,28.37527,-81.389724,,"70","60",,,,,,,,,14.000000000000000,15.000000000000000,,
"5486",091-251-9SB-LNK,FTE,,America/New_York,Floridas Turnpike,South,091-251_9-SB-VDS,Unknown,FDOT,Radar,28.382943,-81.390971,,"70","60",,,,,,,,,14.000000000000000,15.000000000000000,,
"5490",091-253-9NSB-LNK,FTE,,America/New_York,Floridas Turnpike,South,091-253_9-SB-VDS,Unknown,FDOT,Radar,28.412178,-81.391723,,"70","60",,,,,,,,,14.000000000000000,15.000000000000000,,
"14029",091-251-9NB-LNK,FTE,,America/New_York,Floridas Turnpike,South,091-251_9-SB-VDS,Unknown,FDOT,Radar,28.382943,-81.390971,,"70","60",,,,,,,,,14.000000000000000,15.000000000000000,,
"16465",091-255-7NSB-LNK,FTE,,America/New_York,Floridas Turnpike,South,091-255_7-SB-VDS,Unknown,FDOT,Radar,28.432713,-81.407961,,"70","60",,,,,,,,,14.000000000000000,15.000000000000000,,
"16466",091-254-2NSB-LNK,FTE,,America/New_York,Floridas Turnpike,South,091-254_2-SB-VDS,Unknown,FDOT,Radar,28.417166,-81.392346,,"70","60",,,,,,,,,14.000000000000000,15.000000000000000,,
"16467",091-253-9NSB-LNK,FTE,,America/New_York,Floridas Turnpike,South,091-253_9-SB-VDS,Unknown,FDOT,Radar,28.412178,-81.391723,,"70","60",,,,,,,,,14.000000000000000,15.000000000000000,,
"16622",Gary's RSE-Gary's Zone,District 5,,America/New_York,US-441 / Orange Blossom Trl,North,Gary's RSE,Unknown,FDOT,OBE,28.33729,-81.403802,,,"20",,,,,,,,,7.000000000000000,8.000000000000000,,
"11548",US-441 @ TwnCntrBlvd NB,District 5,,America/New_York,US-441 / Orange Blossom Trl,North,MVDS: US-441 at ORA Town Center Blvd NS,Unknown,FDOT,Radar,28.366333,-81.40395,,"50","30",0.2,,,,,,,,8.000000000000000,9.000000000000000,,
"13245",US-441 TwnCntrBlvd-SR-417 NB,District 5,,America/New_York,US-441 / Orange Blossom Trl,North,BM: US-441 at ORA TownCenterBlvd NS,Unknown,FDOT,AVI,28.366633,-81.40395,,"45","300",0.3,,,,,,,,8.000000000000000,9.000000000000000,,
"16622",Gary's RSE-Gary's Zone,District 5,,America/New_York,US-441 / Orange Blossom Trl,North,Gary's RSE,Unknown,FDOT,OBE,28.33729,-81.403802,,,"20",,,,,,,,,8.000000000000000,9.000000000000000,,
"13246",US-441 SB-TwnCntrBlvd-OscPkwy,District 5,,America/New_York,US-441 / Orange Blossom Trl,South,BM: US-441 at ORA TownCenterBlvd NS,Unknown,FDOT,AVI,28.366633,-81.40395,,"45","300",2.27,,,,,,,,8.000000000000000,9.000000000000000,,
"13534",US-441 @ TwnCntrBlvd SB,District 5,,America/New_York,US-441 / Orange Blossom Trl,South,MVDS: US-441 at ORA Town Center Blvd NS,Unknown,FDOT,Radar,28.366333,-81.40395,,"50","30",0.2,,,,,,,,8.000000000000000,9.000000000000000,,
"8283",TMS-417-11.2-SB,OOCEA,,America/New_York,SR-417,South,TMS-417-11.2-SB,Unknown,FDOT,Radar,28.372588,-81.40413,,"65","60",0.5,,,,,,,,8.000000000000000,9.000000000000000,,
"8284",TMS-417-11.2-SB-Rmp,OOCEA,,America/New_York,SR-417,South,TMS-417-11.2-SB,Unknown,FDOT,Radar,28.372588,-81.40413,,"50","60",0.5,,,,,,,,8.000000000000000,9.000000000000000,,
"3823",091-249-5NB-LNK,FTE,,America/New_York,Floridas Turnpike,North,091-249_5-SB-VDS,Unknown,FDOT,Radar,28.352053,-81.385003,,"70","60",,,,,,,,,15.000000000000000,16.000000000000000,,
"3825",091-248-7NB-LNK,FTE,,America/New_York,Floridas Turnpike,North,091-248_7-SB-VDS,Unknown,FDOT,Radar,28.341189,-81.380777,,"70","60",,,,,,,,,15.000000000000000,16.000000000000000,,
"3827",091-249-2NB-LNK,FTE,,America/New_York,Floridas Turnpike,North,091-249_2-NSB-VDS,Unknown,FDOT,Radar,28.348084,-81.383472,,"70","60",,,,,,,,,15.000000000000000,16.000000000000000,,
"3831",091-250-6NB-LNK,FTE,,America/New_York,Floridas Turnpike,North,091-250_6-SB-VDS,Unknown,FDOT,Radar,28.36489,-81.389451,,"70","60",,,,,,,,,15.000000000000000,16.000000000000000,,
"3929",091248.7NBTT-link1,FTE,,America/New_York,Floridas Turnpike,North,091-248_7-NB-TT,Unknown,FDOT,AVI,28.340699,-81.380249,,"70","60",6.5,,,,,,,,15.000000000000000,16.000000000000000,,
"5472",091-250-2NB-LNK,FTE,,America/New_York,Floridas Turnpike,North,091-250_2-SB-VDS,Unknown,FDOT,Radar,28.359216,-81.387981,,"70","60",,,,,,,,,15.000000000000000,16.000000000000000,,
"16460",091-250-6NB-LNK,FTE,,America/New_York,Floridas Turnpike,North,091-250_6-NB-VDS,Unknown,FDOT,Radar,28.36344,-81.388864,,"70","60",,,,,,,,,15.000000000000000,16.000000000000000,,
"16462",091-249-5NB-LNK,FTE,,America/New_York,Floridas Turnpike,North,091-249_5-SB-VDS,Unknown,FDOT,Radar,28.35009,-81.3841,,"70","30",,,,,,,,,15.000000000000000,16.000000000000000,,
"3822",091-249-5NSB-LNK,FTE,,America/New_York,Floridas Turnpike,South,091-249_5-SB-VDS,Unknown,FDOT,Radar,28.352053,-81.385003,,"70","60",,,,,,,,,15.000000000000000,16.000000000000000,,
"3824",091-248-7NSB-LNK,FTE,,America/New_York,Floridas Turnpike,South,091-248_7-SB-VDS,Unknown,FDOT,Radar,28.341189,-81.380777,,"70","60",,,,,,,,,15.000000000000000,16.000000000000000,,
"3826",091-249-2NSB-LNK,FTE,,America/New_York,Floridas Turnpike,South,091-249_2-NSB-VDS,Unknown,FDOT,Radar,28.348084,-81.383472,,"70","60",,,,,,,,,15.000000000000000,16.000000000000000,,
"3830",091-250-6SB-LNK,FTE,,America/New_York,Floridas Turnpike,South,091-250_6-SB-VDS,Unknown,FDOT,Radar,28.36489,-81.389451,,"70","60",,,,,,,,,15.000000000000000,16.000000000000000,,
"3928",091248.7SBTT-link1,FTE,,America/New_York,Floridas Turnpike,South,091-248_7-SB-TT,Unknown,FDOT,AVI,28.340699,-81.380249,,"70","60",2.5,,,,,,,,15.000000000000000,16.000000000000000,,
"5471",091-250-2NSB-LNK,FTE,,America/New_York,Floridas Turnpike,South,091-250_2-SB-VDS,Unknown,FDOT,Radar,28.359216,-81.387981,,"70","60",,,,,,,,,15.000000000000000,16.000000000000000,,
"16459",091-250-6SB-LNK,FTE,,America/New_York,Floridas Turnpike,South,091-250_6-SB-VDS,Unknown,FDOT,Radar,28.363496,-81.389207,,"70","60",,,,,,,,,15.000000000000000,16.000000000000000,,
"16461",091-249-5NSB-LNK,FTE,,America/New_York,Floridas Turnpike,South,091-249_5-SB-VDS,Unknown,FDOT,Radar,28.35009,-81.3841,,"70","30",,,,,,,,,15.000000000000000,16.000000000000000,,
"16622",Gary's RSE-Gary's Zone,District 5,,America/New_York,US-441 / Orange Blossom Trl,North,Gary's RSE,Unknown,FDOT,OBE,28.33729,-81.403802,,,"20",,,,,,,,,8.000000000000000,16.000000000000000,,
"3825",091-248-7NB-LNK,FTE,,America/New_York,Floridas Turnpike,North,091-248_7-SB-VDS,Unknown,FDOT,Radar,28.341189,-81.380777,,"70","60",,,,,,,,,8.000000000000000,16.000000000000000,,
"3929",091248.7NBTT-link1,FTE,,America/New_York,Floridas Turnpike,North,091-248_7-NB-TT,Unknown,FDOT,AVI,28.340699,-81.380249,,"70","60",6.5,,,,,,,,8.000000000000000,16.000000000000000,,
"3824",091-248-7NSB-LNK,FTE,,America/New_York,Floridas Turnpike,South,091-248_7-SB-VDS,Unknown,FDOT,Radar,28.341189,-81.380777,,"70","60",,,,,,,,,8.000000000000000,16.000000000000000,,
"3928",091248.7SBTT-link1,FTE,,America/New_York,Floridas Turnpike,South,091-248_7-SB-TT,Unknown,FDOT,AVI,28.340699,-81.380249,,"70","60",2.5,,,,,,,,8.000000000000000,16.000000000000000,,
"6167",TMS-417-12.2-NB,OOCEA,,America/New_York,SR-417,North,TMS-417-12.2-NB,Unknown,FDOT,Radar,28.368116,-81.388722,,"70","60",0.5,,,,,,,,15.000000000000000,18.000000000000000,,
"6324",TMS-417-15.6-NB,OOCEA,,America/New_York,SR-417,North,TMS-417-15.6-NB,Unknown,FDOT,Radar,28.367446,-81.332111,,"70","60",0.5,,,,,,,,15.000000000000000,18.000000000000000,,
"6630",TMS-417-15.2-NB,OOCEA,,America/New_York,SR-417,North,TMS-417-15.2-NB,Unknown,FDOT,Radar,28.367853,-81.338689,,"65","60",0.5,,,,,,,,15.000000000000000,18.000000000000000,,
"6854",TMS-417-16.4-NB,OOCEA,,America/New_York,SR-417,North,TMS-417-16.4-NB,Unknown,FDOT,Radar,28.366971,-81.323676,,"65","60",0.5,,,,,,,,15.000000000000000,18.000000000000000,,
"7095",TMS-417-14.5-NB,OOCEA,,America/New_York,SR-417,North,TMS-417-14.5-NB,Unknown,FDOT,Radar,28.368709,-81.349715,,"70","60",0.5,,,,,,,,15.000000000000000,18.000000000000000,,
"7997",TMS-417-13.1-NB,OOCEA,,America/New_York,SR-417,North,TMS-417-13.1-NB,Unknown,FDOT,Radar,28.368062,-81.374082,,"70","60",0.5,,,,,,,,15.000000000000000,18.000000000000000,,
"7998",TMS-417-13.1-NB-Rmp,OOCEA,,America/New_York,SR-417,North,TMS-417-13.1-NB,Unknown,FDOT,Radar,28.368062,-81.374082,,"50","60",0.5,,,,,,,,15.000000000000000,18.000000000000000,,
"8466",TMS-417-13.9-NB,OOCEA,,America/New_York,SR-417,North,TMS-417-13.9-NB,Unknown,FDOT,Radar,28.369406,-81.361003,,"65","60",0.5,,,,,,,,15.000000000000000,18.000000000000000,,
"8467",TMS-417-13.9-NB-Rmp,OOCEA,,America/New_York,SR-417,North,TMS-417-13.9-NB,Unknown,FDOT,Radar,28.369406,-81.361003,,"50","60",0.5,,,,,,,,15.000000000000000,18.000000000000000,,
"8480",TMS-417-16.6-NB,OOCEA,,America/New_York,SR-417,North,TMS-417-16.6-NB,Unknown,FDOT,Radar,28.368066,-81.314663,,"65","60",0.5,,,,,,,,15.000000000000000,18.000000000000000,,
"8481",TMS-417-16.6-NB-Rmp,OOCEA,,America/New_York,SR-417,North,TMS-417-16.6-NB,Unknown,FDOT,Radar,28.368066,-81.314663,,"50","60",0.5,,,,,,,,15.000000000000000,18.000000000000000,,
"9178",TMS-417-12.7-NB,OOCEA,,America/New_York,SR-417,North,TMS-417-12.7-NB,Unknown,FDOT,Radar,28.368022,-81.379739,,"70","60",0.5,,,,,,,,15.000000000000000,18.000000000000000,,
"9179",TMS-417-12.7-NB-Rmp,OOCEA,,America/New_York,SR-417,North,TMS-417-12.7-NB,Unknown,FDOT,Radar,28.368022,-81.379739,,"50","60",0.5,,,,,,,,15.000000000000000,18.000000000000000,,
"10897",TMS-417-12.2-NB-Rmp,OOCEA,,America/New_York,SR-417,North,TMS-417-12.2-NB,Unknown,FDOT,Radar,28.368116,-81.388722,,"70","60",0.5,,,,,,,,15.000000000000000,18.000000000000000,,
"11007",TMS-417-16.4-NB,OOCEA,,America/New_York,SR-417,North,TMS-417-16.4-NB,Unknown,FDOT,Radar,28.367096,-81.319196,,"65","60",0.5,,,,,,,,15.000000000000000,18.000000000000000,,
"11012",TMS-417-16.4b-NB-Rmp,OOCEA,,America/New_York,SR-417,North,TMS-417-16.4b-NB,Unknown,FDOT,Radar,28.367096,-81.319196,,"50","60",0.5,,,,,,,,15.000000000000000,18.000000000000000,,
"6299",TMS-417-15.6-SB,OOCEA,,America/New_York,SR-417,South,TMS-417-15.6-SB,Unknown,FDOT,Radar,28.367839,-81.332111,,"70","60",0.5,,,,,,,,15.000000000000000,18.000000000000000,,
"6323",TMS-417-15.2-SB,OOCEA,,America/New_York,SR-417,South,TMS-417-15.2-SB,Unknown,FDOT,Radar,28.368137,-81.338681,,"65","60",0.5,,,,,,,,15.000000000000000,18.000000000000000,,
"6618",TMS-417-16.4-SB,OOCEA,,America/New_York,SR-417,South,TMS-417-16.4-SB,Unknown,FDOT,Radar,28.367096,-81.319196,,"65","60",0.5,,,,,,,,15.000000000000000,18.000000000000000,,
"6700",TMS-417-14.7-SB,OOCEA,,America/New_York,SR-417,South,TMS-417-14.7-SB,Unknown,FDOT,Radar,28.368902,-81.349762,,"70","60",0.5,,,,,,,,15.000000000000000,18.000000000000000,,
"7090",TMS-417-12.2-SB,OOCEA,,America/New_York,SR-417,South,TMS-417-12.2-SB,Unknown,FDOT,Radar,28.368116,-81.388722,,"70","60",0.5,,,,,,,,15.000000000000000,18.000000000000000,,
"8482",TMS-417-16.6-SB,OOCEA,,America/New_York,SR-417,South,TMS-417-16.6-SB,Unknown,FDOT,Radar,28.368129,-81.315285,,"65","60",0.5,,,,,,,,15.000000000000000,18.000000000000000,,
"8483",TMS-417-16.6-SB-Rmp,OOCEA,,America/New_York,SR-417,South,TMS-417-16.6-SB,Unknown,FDOT,Radar,28.368129,-81.315285,,"50","60",0.5,,,,,,,,15.000000000000000,18.000000000000000,,
"8484",TMS-417-13.9-SB,OOCEA,,America/New_York,SR-417,South,TMS-417-13.9-SB,Unknown,FDOT,Radar,28.369726,-81.361005,,"65","60",0.5,,,,,,,,15.000000000000000,18.000000000000000,,
"8485",TMS-417-13.9-SB-Rmp,OOCEA,,America/New_York,SR-417,South,TMS-417-13.9-SB,Unknown,FDOT,Radar,28.369726,-81.361005,,"50","60",0.5,,,,,,,,15.000000000000000,18.000000000000000,,
"8486",TMS-417-13.2-SB,OOCEA,,America/New_York,SR-417,South,TMS-417-13.2-SB,Unknown,FDOT,Radar,28.36858,-81.371487,,"65","60",0.5,,,,,,,,15.000000000000000,18.000000000000000,,
"8487",TMS-417-13.2-SB-Rmp,OOCEA,,America/New_York,SR-417,South,TMS-417-13.2-SB,Unknown,FDOT,Radar,28.36858,-81.371487,,"50","60",0.5,,,,,,,,15.000000000000000,18.000000000000000,,
"9176",TMS-417-12.7-SB,OOCEA,,America/New_York,SR-417,South,TMS-417-12.7-SB,Unknown,FDOT,Radar,28.368513,-81.379744,,"70","60",0.5,,,,,,,,15.000000000000000,18.000000000000000,,
"9177",TMS-417-12.7-SB-Rmp,OOCEA,,America/New_York,SR-417,South,TMS-417-12.7-SB,Unknown,FDOT,Radar,28.368513,-81.379744,,"50","60",0.5,,,,,,,,15.000000000000000,18.000000000000000,,
"11255",TMS-417-16.4-SB-Rmp,OOCEA,,America/New_York,SR-417,South,TMS-417-16.4-SB,Unknown,FDOT,Radar,28.367096,-81.319196,,"65","60",0.5,,,,,,,,15.000000000000000,18.000000000000000,,
"6371",SR436 @ SR528 - NB,District 5,Orlando,America/New_York,SR-436 / Semoran Blvd / Altamonte Dr,West,SR436 @ SR528 North,Unknown,FDOT,AVI,28.45158,-81.30858,,"45","30",6.1,,,,,,,,14.000000000000000,17.000000000000000,,
"5911",US441 @ SR528 - SB,District 5,Orlando,America/New_York,US-441 / Orange Blossom Trl,South,US441 @ SR528 South,Unknown,FDOT,AVI,28.43358,-81.40592,,"45","30",4.3,,,,,,,,14.000000000000000,17.000000000000000,,
"4027",528-006_5-EB-LNK,FTE,,America/New_York,SR-528,East,528-006_4-WB-VDS,Unknown,FDOT,Radar,28.446,-81.37737,,"55","60",,,,,,,,,14.000000000000000,17.000000000000000,,
"5463",528-005_6-EB-LNK,FTE,,America/New_York,SR-528,East,528-005_6-WB-VDS,Unknown,FDOT,Radar,28.44244,-81.39186,,"55","60",,,,,,,,,14.000000000000000,17.000000000000000,,
"5539",528005-3EB-LNK,FTE,,America/New_York,SR-528,East,528-005_3-WB-VDS,Unknown,FDOT,Radar,28.44082,-81.39603,,"55","60",,,,,,,,,14.000000000000000,17.000000000000000,,
"5540",528-004_9-EB-LNK,FTE,,America/New_York,SR-528,East,528-004_9-EB-VDS,Unknown,FDOT,Radar,28.43653,-81.40057,,"55","60",,,,,,,,,14.000000000000000,17.000000000000000,,
"5542",528-004_6-EB-LNK,FTE,,America/New_York,SR-528,East,528-004_5-EB-VDS,Unknown,FDOT,Radar,28.43392,-81.40564,,"55","60",,,,,,,,,14.000000000000000,17.000000000000000,,
"5623",528-007_7-EB-LNK,FTE,,America/New_York,SR-528,East,528-007_7-EB-VDS,Unknown,FDOT,Radar,28.44694,-81.35757,,"55","60",,,,,,,,,14.000000000000000,17.000000000000000,,
"5626",528-007_3-EB-LNK,FTE,,America/New_York,SR-528,East,528-007_2-WB-VDS,Unknown,FDOT,Radar,28.44607,-81.36533,,"55","60",,,,,,,,,14.000000000000000,17.000000000000000,,
"5630",528-008_2-EB-LNK,FTE,,America/New_York,SR-528,East,528-008_2-WB-VDS,Unknown,FDOT,Radar,28.45082,-81.35024,,"55","60",,,,,,,,,14.000000000000000,17.000000000000000,,
"5633",528-006_0-EB-LNK,FTE,,America/New_York,SR-528,East,528-005_9-EB-VDS,Unknown,FDOT,Radar,28.44343,-81.38567,,"55","60",,,,,,,,,14.000000000000000,17.000000000000000,,
"5637",528-007_0-EB-LNK,FTE,,America/New_York,SR-528,East,528-006_9-EB-VDS,Unknown,FDOT,Radar,28.44555,-81.36956,,"55","60",,,,,,,,,14.000000000000000,17.000000000000000,,
"14393",528-005_3-EB-LNK,FTE,,America/New_York,SR-528,East,528-005_3-WB-VDS,Unknown,FDOT,Radar,28.44082,-81.39603,,"55","60",,,,,,,,,14.000000000000000,17.000000000000000,,
"16103",528-004_6-EB-LNK,FTE,,America/New_York,SR-528,East,528-004_6-EB-VDS new,Unknown,FDOT,Radar,28.43392,-81.40564,,"70","60",,,,,,,,,14.000000000000000,17.000000000000000,,
"16116",528-004_8-EB-LNK,FTE,,America/New_York,SR-528,East,528-004_8-EB-VDS,Unknown,FDOT,Radar,28.436424,-81.400528,,"55","60",,,,,,,,,14.000000000000000,17.000000000000000,,
"16316",528-004-5EB-LNK,FTE,,America/New_York,SR-528,East,528-004_5-EB-VDS,Unknown,FDOT,Radar,28.43392,-81.40564,,"60","60",,,,,,,,,14.000000000000000,17.000000000000000,,
"4026",528-006_5-WB-LNK,FTE,,America/New_York,SR-528,West,528-006_4-WB-VDS,Unknown,FDOT,Radar,28.446,-81.37737,,"55","60",,,,,,,,,14.000000000000000,17.000000000000000,,
"5271",528005-3WBTT-link1,FTE,,America/New_York,SR-528,West,528-005_3-WB-TT,Unknown,FDOT,AVI,28.44082,-81.39603,,"55","60",1,,,,,,,,14.000000000000000,17.000000000000000,,
"5272",528005-3WBTT-link2,FTE,,America/New_York,SR-528,West,528-005_3-WB-TT,Unknown,FDOT,AVI,28.44082,-81.39603,,"55","60",2.1,,,,,,,,14.000000000000000,17.000000000000000,,
"5462",528-005_6-WB-LNK,FTE,,America/New_York,SR-528,West,528-005_6-WB-VDS,Unknown,FDOT,Radar,28.44244,-81.39186,,"55","60",,,,,,,,,14.000000000000000,17.000000000000000,,
"5538",528-005-3WB-LNK,FTE,,America/New_York,SR-528,West,528-005_3-WB-VDS,Unknown,FDOT,Radar,28.44082,-81.39603,,"55","60",,,,,,,,,14.000000000000000,17.000000000000000,,
"5541",528-004_9-WB-LNK,FTE,,America/New_York,SR-528,West,528-004_9-EB-VDS,Unknown,FDOT,Radar,28.43653,-81.40057,,"55","60",,,,,,,,,14.000000000000000,17.000000000000000,,
"5543",528-004-5-WB-LNK,FTE,,America/New_York,SR-528,West,528-004_5-EB-VDS,Unknown,FDOT,Radar,28.43392,-81.40564,,"55","60",,,,,,,,,14.000000000000000,17.000000000000000,,
"5624",528-007_7-WB-LNK,FTE,,America/New_York,SR-528,West,528-007_7-EB-VDS,Unknown,FDOT,Radar,28.44694,-81.35757,,"55","60",,,,,,,,,14.000000000000000,17.000000000000000,,
"5625",528-007_3-WB-LNK,FTE,,America/New_York,SR-528,West,528-007_2-WB-VDS,Unknown,FDOT,Radar,28.44607,-81.36533,,"55","60",,,,,,,,,14.000000000000000,17.000000000000000,,
"5629",528-008_2-WB-LNK,FTE,,America/New_York,SR-528,West,528-008_2-WB-VDS,Unknown,FDOT,Radar,28.45082,-81.35024,,"55","60",,,,,,,,,14.000000000000000,17.000000000000000,,
"5634",528-006_0-WB-LNK,FTE,,America/New_York,SR-528,West,528-005_9-EB-VDS,Unknown,FDOT,Radar,28.44343,-81.38567,,"55","60",,,,,,,,,14.000000000000000,17.000000000000000,,
"5638",528-007_0-WB-LNK,FTE,,America/New_York,SR-528,West,528-006_9-EB-VDS,Unknown,FDOT,Radar,28.44555,-81.36956,,"55","60",,,,,,,,,14.000000000000000,17.000000000000000,,
"14389",528-005_3-WB-LNK,FTE,,America/New_York,SR-528,West,528-005_3-WB-VDS,Unknown,FDOT,Radar,28.44082,-81.39603,,"55","60",,,,,,,,,14.000000000000000,17.000000000000000,,
"14775",528-004_6-WB-LNK,FTE,,America/New_York,SR-528,West,528-004_5-EB-VDS,Unknown,FDOT,Radar,28.43392,-81.40564,,"55","60",,,,,,,,,14.000000000000000,17.000000000000000,,
"16102",528-004_6-WB-LNK,FTE,,America/New_York,SR-528,West,528-004_6-EB-VDS new,Unknown,FDOT,Radar,28.43392,-81.40564,,"70","60",,,,,,,,,14.000000000000000,17.000000000000000,,
"16117",528-004_8-WB-LNK,FTE,,America/New_York,SR-528,West,528-004_8-EB-VDS,Unknown,FDOT,Radar,28.436424,-81.400528,,"55","60",,,,,,,,,14.000000000000000,17.000000000000000,,
"16315",528-004-5WB-LNK,FTE,,America/New_York,SR-528,West,528-004_5-EB-VDS,Unknown,FDOT,Radar,28.43392,-81.40564,,"60","60",,,,,,,,,14.000000000000000,17.000000000000000,,
"6740",TMS-528-10.8-EB-Rmp,OOCEA,,America/New_York,SR-528,East,TMS-528-10.8-EB,Unknown,FDOT,Radar,28.451298,-81.308774,,"50","60",0.5,,,,,,,,14.000000000000000,17.000000000000000,,
"6947",TMS-528-09.8-EB,OOCEA,,America/New_York,SR-528,East,TMS-528-09.8-EB,Unknown,FDOT,Radar,28.451257,-81.324543,,"70","60",0.5,,,,,,,,14.000000000000000,17.000000000000000,,
"8296",TMS-528-10.7-EB,OOCEA,,America/New_York,SR-528,East,TMS-528-10.7-EB,Unknown,FDOT,Radar,28.451354,-81.312698,,"70","60",0.5,,,,,,,,14.000000000000000,17.000000000000000,,
"8297",TMS-528-10.7-EB-Rmp,OOCEA,,America/New_York,SR-528,East,TMS-528-10.7-EB,Unknown,FDOT,Radar,28.451354,-81.312698,,"50","60",0.5,,,,,,,,14.000000000000000,17.000000000000000,,
"8301",TMS-528-10.3-EB,OOCEA,,America/New_York,SR-528,East,TMS-528-10.3-EB,Unknown,FDOT,Radar,28.451373,-81.316211,,"70","60",0.5,,,,,,,,14.000000000000000,17.000000000000000,,
"8302",TMS-528-10.3-EB-Rmp,OOCEA,,America/New_York,SR-528,East,TMS-528-10.3-EB,Unknown,FDOT,Radar,28.451373,-81.316211,,"50","60",0.5,,,,,,,,14.000000000000000,17.000000000000000,,
"8303",TMS-528-10.3-EB-Rmp2,OOCEA,,America/New_York,SR-528,East,TMS-528-10.3-EB,Unknown,FDOT,Radar,28.451373,-81.316211,,"50","60",0.5,,,,,,,,14.000000000000000,17.000000000000000,,
"8327",TMS-528-08.6-EB,OOCEA,,America/New_York,SR-528,East,TMS-528-08.6-EB,Unknown,FDOT,Radar,28.451063,-81.345997,,"55","60",0.5,,,,,,,,14.000000000000000,17.000000000000000,,
"8328",TMS-528-08.6-EB-Rmp,OOCEA,,America/New_York,SR-528,East,TMS-528-08.6-EB,Unknown,FDOT,Radar,28.451063,-81.345997,,"50","60",0.5,,,,,,,,14.000000000000000,17.000000000000000,,
"8331",TMS-528-09.0-EB,OOCEA,,America/New_York,SR-528,East,TMS-528-09.0-EB,Unknown,FDOT,Radar,28.4506,-81.338217,,"55","60",0.5,,,,,,,,14.000000000000000,17.000000000000000,,
"8332",TMS-528-09.0-EB-Rmp,OOCEA,,America/New_York,SR-528,East,TMS-528-09.0-EB,Unknown,FDOT,Radar,28.4506,-81.338217,,"50","60",0.5,,,,,,,,14.000000000000000,17.000000000000000,,
"8341",TMS-528-09.5-EB,OOCEA,,America/New_York,SR-528,East,TMS-528-09.5-EB,Unknown,FDOT,Radar,28.451298,-81.328316,,"65","60",0.5,,,,,,,,14.000000000000000,17.000000000000000,,
"8342",TMS-528-09.5-EB-Rmp,OOCEA,,America/New_York,SR-528,East,TMS-528-09.5-EB,Unknown,FDOT,Radar,28.451298,-81.328316,,"50","60",0.5,,,,,,,,14.000000000000000,17.000000000000000,,
"11294",TMS-528-09.8-EB,OOCEA,,America/New_York,SR-528,East,TMS-528-09.8-EB,Unknown,FDOT,Radar,28.451257,-81.324543,,"65","60",0.5,,,,,,,,14.000000000000000,17.000000000000000,,
"6094",TMS-528-09.8-WB,OOCEA,,America/New_York,SR-528,West,TMS-528-09.8-WB,Unknown,FDOT,Radar,28.451669,-81.324495,,"70","60",0.5,,,,,,,,14.000000000000000,17.000000000000000,,
"6602",TMS-528-10.5b-WB,OOCEA,,America/New_York,SR-528,West,TMS-528-10.5b-WB,Unknown,FDOT,Radar,28.451804,-81.31035,,"70","60",0.5,,,,,,,,14.000000000000000,17.000000000000000,,
"6739",TMS-528-10.5a-WB-Rmp,OOCEA,,America/New_York,SR-528,West,TMS-528-10.5a-WB,Unknown,FDOT,Radar,28.451804,-81.312698,,"50","60",0.5,,,,,,,,14.000000000000000,17.000000000000000,,
"7054",TMS-528-10.3-WB,OOCEA,,America/New_York,SR-528,West,TMS-528-10.3-WB,Unknown,FDOT,Radar,28.451723,-81.316211,,"70","60",0.5,,,,,,,,14.000000000000000,17.000000000000000,,
"8329",TMS-528-08.6-WB,OOCEA,,America/New_York,SR-528,West,TMS-528-08.6-WB,Unknown,FDOT,Radar,28.451063,-81.345997,,"55","60",0.5,,,,,,,,14.000000000000000,17.000000000000000,,
"8330",TMS-528-08.6-WB-Rmp,OOCEA,,America/New_York,SR-528,West,TMS-528-08.6-WB,Unknown,FDOT,Radar,28.451063,-81.345997,,"50","60",0.5,,,,,,,,14.000000000000000,17.000000000000000,,
"8336",TMS-528-09.4-WB,OOCEA,,America/New_York,SR-528,West,TMS-528-09.4-WB,Unknown,FDOT,Radar,28.451498,-81.332135,,"55","60",0.5,,,,,,,,14.000000000000000,17.000000000000000,,
"8337",TMS-528-09.4-WB-Rmp,OOCEA,,America/New_York,SR-528,West,TMS-528-09.4-WB,Unknown,FDOT,Radar,28.451498,-81.332135,,"50","60",0.5,,,,,,,,14.000000000000000,17.000000000000000,,
"8344",TMS-528-09.5-WB,OOCEA,,America/New_York,SR-528,West,TMS-528-09.5-WB,Unknown,FDOT,Radar,28.451822,-81.328316,,"65","60",0.5,,,,,,,,14.000000000000000,17.000000000000000,,
"8345",TMS-528-09.5-WB-Rmp,OOCEA,,America/New_York,SR-528,West,TMS-528-09.5-WB,Unknown,FDOT,Radar,28.451822,-81.328316,,"50","60",0.5,,,,,,,,14.000000000000000,17.000000000000000,,
"11293",TMS-528-08.9-WB-Rmp,OOCEA,,America/New_York,SR-528,West,TMS-528-08.9-WB,Unknown,FDOT,Radar,28.45089,-81.339516,,"50","60",0.5,,,,,,,,14.000000000000000,17.000000000000000,,
"11452",TMS-528-08.9-WB,OOCEA,,America/New_York,SR-528,West,TMS-528-08.9-WB,Unknown,FDOT,Radar,28.45089,-81.339516,,"55","60",0.5,,,,,,,,14.000000000000000,17.000000000000000,,
"11504",TMS-528-08.6-WB,OOCEA,,America/New_York,SR-528,West,TMS-528-08.6-WB,Unknown,FDOT,Radar,28.451063,-81.345997,,"55","60",0.5,,,,,,,,14.000000000000000,17.000000000000000,,
"6371",SR436 @ SR528 - NB,District 5,Orlando,America/New_York,SR-436 / Semoran Blvd / Altamonte Dr,West,SR436 @ SR528 North,Unknown,FDOT,AVI,28.45158,-81.30858,,"45","30",6.1,,,,,,,,17.000000000000000,18.000000000000000,,
"6740",TMS-528-10.8-EB-Rmp,OOCEA,,America/New_York,SR-528,East,TMS-528-10.8-EB,Unknown,FDOT,Radar,28.451298,-81.308774,,"50","60",0.5,,,,,,,,17.000000000000000,18.000000000000000,,
